<?xml version="1.0" encoding="utf-8" ?>
<kml xmlns="http://www.opengis.net/kml/2.2">
<Document id="root_doc">
<Schema name="damage_swesph_railways" id="damage_swesph_railways">
	<SimpleField name="osm_id" type="string"></SimpleField>
	<SimpleField name="type" type="string"></SimpleField>
	<SimpleField name="depth_cls" type="string"></SimpleField>
	<SimpleField name="max_depth" type="float"></SimpleField>
	<SimpleField name="length_m" type="float"></SimpleField>
</Schema>
<Folder><name>damage_swesph_railways</name>
  <Placemark id="damage_swesph_railways.1">
	<Style><LineStyle><color>ff0000ff</color></LineStyle><PolyStyle><fill>0</fill></PolyStyle></Style>
	<ExtendedData><SchemaData schemaUrl="#damage_swesph_railways">
		<SimpleData name="osm_id">782449336</SimpleData>
		<SimpleData name="type">rail</SimpleData>
		<SimpleData name="depth_cls">0.5-1.5 m</SimpleData>
		<SimpleData name="max_depth">1.41</SimpleData>
		<SimpleData name="length_m">199.9</SimpleData>
	</SchemaData></ExtendedData>
      <LineString><coordinates>79.1131341,14.2444228 79.1131885740922,14.2442501172618 79.1132430480862,14.2440774344985 79.1132975219817,14.2439047517102 79.1133519957789,14.2437320688969 79.1134064694778,14.2435593860585 79.1134609430784,14.2433867031952 79.1135154165806,14.2432140203068 79.1135702884517,14.2430414601818 79.1136274120466,14.2428695939346 79.1136845355399,14.2426977276606</coordinates></LineString>
  </Placemark>
  <Placemark id="damage_swesph_railways.2">
	<Style><LineStyle><color>ff0000ff</color></LineStyle><PolyStyle><fill>0</fill></PolyStyle></Style>
	<ExtendedData><SchemaData schemaUrl="#damage_swesph_railways">
		<SimpleData name="osm_id">782449336</SimpleData>
		<SimpleData name="type">rail</SimpleData>
		<SimpleData name="depth_cls">&gt;1.5 m</SimpleData>
		<SimpleData name="max_depth">2.28</SimpleData>
		<SimpleData name="length_m">419.8</SimpleData>
	</SchemaData></ExtendedData>
      <LineString><coordinates>79.1136845355399,14.2426977276606 79.1137416589316,14.2425258613601 79.1137987822217,14.2423539950328 79.1138559054101,14.2421821286788 79.113913028497,14.2420102622982 79.1139701514821,14.2418383958908 79.1140272743657,14.2416665294568 79.1140843971477,14.2414946629961 79.114141519828,14.2413227965087 79.1141986424068,14.2411509299947 79.1142557648839,14.2409790634539 79.1143128872594,14.2408071968865 79.1143700095333,14.2406353302924 79.1144271317056,14.2404634636716 79.1144842537763,14.2402915970242 79.1145413757453,14.24011973035 79.1145984976128,14.2399478636492 79.1146556193787,14.2397759969217 79.114712741043,14.2396041301675 79.1147698626056,14.2394322633867 79.1148269840667,14.2392603965792 79.1148841054262,14.239088529745</coordinates></LineString>
  </Placemark>
  <Placemark id="damage_swesph_railways.3">
	<Style><LineStyle><color>ff0000ff</color></LineStyle><PolyStyle><fill>0</fill></PolyStyle></Style>
	<ExtendedData><SchemaData schemaUrl="#damage_swesph_railways">
		<SimpleData name="osm_id">782449336</SimpleData>
		<SimpleData name="type">rail</SimpleData>
		<SimpleData name="depth_cls">0.5-1.5 m</SimpleData>
		<SimpleData name="max_depth">1.46</SimpleData>
		<SimpleData name="length_m">40</SimpleData>
	</SchemaData></ExtendedData>
      <LineString><coordinates>79.1148841054262,14.239088529745 79.1149412266841,14.2389166628841 79.1150001892193,14.2387453896525</coordinates></LineString>
  </Placemark>
  <Placemark id="damage_swesph_railways.4">
	<Style><LineStyle><color>ff0000ff</color></LineStyle><PolyStyle><fill>0</fill></PolyStyle></Style>
	<ExtendedData><SchemaData schemaUrl="#damage_swesph_railways">
		<SimpleData name="osm_id">782449336</SimpleData>
		<SimpleData name="type">rail</SimpleData>
		<SimpleData name="depth_cls">&gt;1.5 m</SimpleData>
		<SimpleData name="max_depth">1.56</SimpleData>
		<SimpleData name="length_m">20</SimpleData>
	</SchemaData></ExtendedData>
      <LineString><coordinates>79.1150001892193,14.2387453896525 79.1150593234015,14.2385741717651</coordinates></LineString>
  </Placemark>
  <Placemark id="damage_swesph_railways.5">
	<Style><LineStyle><color>ff0000ff</color></LineStyle><PolyStyle><fill>0</fill></PolyStyle></Style>
	<ExtendedData><SchemaData schemaUrl="#damage_swesph_railways">
		<SimpleData name="osm_id">782449336</SimpleData>
		<SimpleData name="type">rail</SimpleData>
		<SimpleData name="depth_cls">0.5-1.5 m</SimpleData>
		<SimpleData name="max_depth">1.47</SimpleData>
		<SimpleData name="length_m">80</SimpleData>
	</SchemaData></ExtendedData>
      <LineString><coordinates>79.1150593234015,14.2385741717651 79.1151184574797,14.2384029538496 79.1151775914538,14.2382317359063 79.1152367253238,14.2380605179349 79.1152958590899,14.2378892999356</coordinates></LineString>
  </Placemark>
  <Placemark id="damage_swesph_railways.6">
	<Style><LineStyle><color>ff0000ff</color></LineStyle><PolyStyle><fill>0</fill></PolyStyle></Style>
	<ExtendedData><SchemaData schemaUrl="#damage_swesph_railways">
		<SimpleData name="osm_id">782449336</SimpleData>
		<SimpleData name="type">rail</SimpleData>
		<SimpleData name="depth_cls">&gt;1.5 m</SimpleData>
		<SimpleData name="max_depth">1.63</SimpleData>
		<SimpleData name="length_m">40</SimpleData>
	</SchemaData></ExtendedData>
      <LineString><coordinates>79.1152958590899,14.2378892999356 79.1153549927518,14.2377180819083 79.1154141263098,14.237546863853</coordinates></LineString>
  </Placemark>
  <Placemark id="damage_swesph_railways.7">
	<Style><LineStyle><color>ff0000ff</color></LineStyle><PolyStyle><fill>0</fill></PolyStyle></Style>
	<ExtendedData><SchemaData schemaUrl="#damage_swesph_railways">
		<SimpleData name="osm_id">782449336</SimpleData>
		<SimpleData name="type">rail</SimpleData>
		<SimpleData name="depth_cls">0.5-1.5 m</SimpleData>
		<SimpleData name="max_depth">1.49</SimpleData>
		<SimpleData name="length_m">40</SimpleData>
	</SchemaData></ExtendedData>
      <LineString><coordinates>79.1154141263098,14.237546863853 79.1154732597637,14.2373756457698 79.1155323931136,14.2372044276586</coordinates></LineString>
  </Placemark>
  <Placemark id="damage_swesph_railways.8">
	<Style><LineStyle><color>ff0000ff</color></LineStyle><PolyStyle><fill>0</fill></PolyStyle></Style>
	<ExtendedData><SchemaData schemaUrl="#damage_swesph_railways">
		<SimpleData name="osm_id">782449336</SimpleData>
		<SimpleData name="type">rail</SimpleData>
		<SimpleData name="depth_cls">&gt;1.5 m</SimpleData>
		<SimpleData name="max_depth">1.79</SimpleData>
		<SimpleData name="length_m">60</SimpleData>
	</SchemaData></ExtendedData>
      <LineString><coordinates>79.1155323931136,14.2372044276586 79.1155915263595,14.2370332095194 79.1156506595013,14.2368619913523 79.1157097925391,14.2366907731572</coordinates></LineString>
  </Placemark>
  <Placemark id="damage_swesph_railways.9">
	<Style><LineStyle><color>ff0000ff</color></LineStyle><PolyStyle><fill>0</fill></PolyStyle></Style>
	<ExtendedData><SchemaData schemaUrl="#damage_swesph_railways">
		<SimpleData name="osm_id">782449336</SimpleData>
		<SimpleData name="type">rail</SimpleData>
		<SimpleData name="depth_cls">0.5-1.5 m</SimpleData>
		<SimpleData name="max_depth">1.34</SimpleData>
		<SimpleData name="length_m">40</SimpleData>
	</SchemaData></ExtendedData>
      <LineString><coordinates>79.1157097925391,14.2366907731572 79.1157689254728,14.2365195549341 79.1158280583026,14.2363483366831</coordinates></LineString>
  </Placemark>
  <Placemark id="damage_swesph_railways.10">
	<Style><LineStyle><color>ff0000ff</color></LineStyle><PolyStyle><fill>0</fill></PolyStyle></Style>
	<ExtendedData><SchemaData schemaUrl="#damage_swesph_railways">
		<SimpleData name="osm_id">782449336</SimpleData>
		<SimpleData name="type">rail</SimpleData>
		<SimpleData name="depth_cls">&gt;1.5 m</SimpleData>
		<SimpleData name="max_depth">1.56</SimpleData>
		<SimpleData name="length_m">20</SimpleData>
	</SchemaData></ExtendedData>
      <LineString><coordinates>79.1158280583026,14.2363483366831 79.1158871910283,14.2361771184041</coordinates></LineString>
  </Placemark>
  <Placemark id="damage_swesph_railways.11">
	<Style><LineStyle><color>ff0000ff</color></LineStyle><PolyStyle><fill>0</fill></PolyStyle></Style>
	<ExtendedData><SchemaData schemaUrl="#damage_swesph_railways">
		<SimpleData name="osm_id">782449336</SimpleData>
		<SimpleData name="type">rail</SimpleData>
		<SimpleData name="depth_cls">0.5-1.5 m</SimpleData>
		<SimpleData name="max_depth">1.39</SimpleData>
		<SimpleData name="length_m">299.9</SimpleData>
	</SchemaData></ExtendedData>
      <LineString><coordinates>79.1158871910283,14.2361771184041 79.1159457838458,14.2360057236818 79.1160043383502,14.2358343164445 79.1160628927512,14.2356629091795 79.116121447049,14.235491501887 79.1161800012435,14.2353200945669 79.1162385553346,14.2351486872192 79.1162971093225,14.2349772798439 79.116355663207,14.234805872441 79.1164142169882,14.2346344650106 79.1164727706661,14.2344630575526 79.1165313242408,14.234291650067 79.1165898777121,14.2341202425538 79.1166484310801,14.233948835013 79.1167069843448,14.2337774274446 79.1167655375063,14.2336060198487</coordinates></LineString>
  </Placemark>
  <Placemark id="damage_swesph_railways.12">
	<Style><LineStyle><color>ff0000ff</color></LineStyle><PolyStyle><fill>0</fill></PolyStyle></Style>
	<ExtendedData><SchemaData schemaUrl="#damage_swesph_railways">
		<SimpleData name="osm_id">782449336</SimpleData>
		<SimpleData name="type">rail</SimpleData>
		<SimpleData name="depth_cls">0.1-0.5 m</SimpleData>
		<SimpleData name="max_depth">0.41</SimpleData>
		<SimpleData name="length_m">100</SimpleData>
	</SchemaData></ExtendedData>
      <LineString><coordinates>79.1167655375063,14.2336060198487 79.1168240905644,14.2334346122252 79.1168826435192,14.2332632045741 79.1169411963708,14.2330917968955 79.116999749119,14.2329203891892 79.117058301764,14.2327489814554</coordinates></LineString>
  </Placemark>
  <Placemark id="damage_swesph_railways.13">
	<Style><LineStyle><color>ff0000ff</color></LineStyle><PolyStyle><fill>0</fill></PolyStyle></Style>
	<ExtendedData><SchemaData schemaUrl="#damage_swesph_railways">
		<SimpleData name="osm_id">782449334</SimpleData>
		<SimpleData name="type">rail</SimpleData>
		<SimpleData name="depth_cls">0.5-1.5 m</SimpleData>
		<SimpleData name="max_depth">1.41</SimpleData>
		<SimpleData name="length_m">199.8</SimpleData>
	</SchemaData></ExtendedData>
      <LineString><coordinates>79.1131774,14.2444415 79.1132322520776,14.2442690478536 79.1132871040565,14.244096595682 79.1133419559367,14.2439241434851 79.1133968077181,14.2437516912629 79.1134516594008,14.2435792390155 79.1135065109847,14.2434067867429 79.11356136247,14.243234334445 79.1136156861339,14.2430617254746 79.1136686222074,14.242888704621 79.1137215581847,14.2427156837434</coordinates></LineString>
  </Placemark>
  <Placemark id="damage_swesph_railways.14">
	<Style><LineStyle><color>ff0000ff</color></LineStyle><PolyStyle><fill>0</fill></PolyStyle></Style>
	<ExtendedData><SchemaData schemaUrl="#damage_swesph_railways">
		<SimpleData name="osm_id">782449334</SimpleData>
		<SimpleData name="type">rail</SimpleData>
		<SimpleData name="depth_cls">&gt;1.5 m</SimpleData>
		<SimpleData name="max_depth">2.28</SimpleData>
		<SimpleData name="length_m">419.6</SimpleData>
	</SchemaData></ExtendedData>
      <LineString><coordinates>79.1137215581847,14.2427156837434 79.1137744940656,14.2425426628417 79.1138274298502,14.242369641916 79.1138803655385,14.2421966209662 79.1139338006377,14.242023753061 79.1139918199633,14.241852289949 79.1140498391862,14.2416808268097 79.1141078583066,14.2415093636431 79.1141658773243,14.2413379004493 79.1142238962394,14.2411664372283 79.1142819150518,14.24099497398 79.1143408309911,14.2408238038139 79.1144003881805,14.2406528431392 79.1144599452655,14.2404818824362 79.114519502246,14.2403109217051 79.114579059122,14.2401399609456 79.1146386158935,14.239969000158 79.1146981725605,14.2397980393421 79.1147577291231,14.2396270784979 79.1148172855812,14.2394561176255 79.1148768419348,14.2392851567249 79.1149363981839,14.239114195796</coordinates></LineString>
  </Placemark>
  <Placemark id="damage_swesph_railways.15">
	<Style><LineStyle><color>ff0000ff</color></LineStyle><PolyStyle><fill>0</fill></PolyStyle></Style>
	<ExtendedData><SchemaData schemaUrl="#damage_swesph_railways">
		<SimpleData name="osm_id">782449334</SimpleData>
		<SimpleData name="type">rail</SimpleData>
		<SimpleData name="depth_cls">0.5-1.5 m</SimpleData>
		<SimpleData name="max_depth">1.46</SimpleData>
		<SimpleData name="length_m">20</SimpleData>
	</SchemaData></ExtendedData>
      <LineString><coordinates>79.1149363981839,14.239114195796 79.1149959543285,14.2389432348389</coordinates></LineString>
  </Placemark>
  <Placemark id="damage_swesph_railways.16">
	<Style><LineStyle><color>ff0000ff</color></LineStyle><PolyStyle><fill>0</fill></PolyStyle></Style>
	<ExtendedData><SchemaData schemaUrl="#damage_swesph_railways">
		<SimpleData name="osm_id">782449334</SimpleData>
		<SimpleData name="type">rail</SimpleData>
		<SimpleData name="depth_cls">&gt;1.5 m</SimpleData>
		<SimpleData name="max_depth">1.56</SimpleData>
		<SimpleData name="length_m">40</SimpleData>
	</SchemaData></ExtendedData>
      <LineString><coordinates>79.1149959543285,14.2389432348389 79.1150555103687,14.2387722738536 79.1151134123736,14.2386007762668</coordinates></LineString>
  </Placemark>
  <Placemark id="damage_swesph_railways.17">
	<Style><LineStyle><color>ff0000ff</color></LineStyle><PolyStyle><fill>0</fill></PolyStyle></Style>
	<ExtendedData><SchemaData schemaUrl="#damage_swesph_railways">
		<SimpleData name="osm_id">782449334</SimpleData>
		<SimpleData name="type">rail</SimpleData>
		<SimpleData name="depth_cls">0.5-1.5 m</SimpleData>
		<SimpleData name="max_depth">1.47</SimpleData>
		<SimpleData name="length_m">59.9</SimpleData>
	</SchemaData></ExtendedData>
      <LineString><coordinates>79.1151134123736,14.2386007762668 79.1151706968269,14.2384290783381 79.1152279811784,14.2382573803827 79.1152852654282,14.2380856824006</coordinates></LineString>
  </Placemark>
  <Placemark id="damage_swesph_railways.18">
	<Style><LineStyle><color>ff0000ff</color></LineStyle><PolyStyle><fill>0</fill></PolyStyle></Style>
	<ExtendedData><SchemaData schemaUrl="#damage_swesph_railways">
		<SimpleData name="osm_id">782449334</SimpleData>
		<SimpleData name="type">rail</SimpleData>
		<SimpleData name="depth_cls">&gt;1.5 m</SimpleData>
		<SimpleData name="max_depth">1.63</SimpleData>
		<SimpleData name="length_m">59.9</SimpleData>
	</SchemaData></ExtendedData>
      <LineString><coordinates>79.1152852654282,14.2380856824006 79.1153425495763,14.2379139843916 79.1153998336227,14.2377422863559 79.1154571175675,14.2375705882934</coordinates></LineString>
  </Placemark>
  <Placemark id="damage_swesph_railways.19">
	<Style><LineStyle><color>ff0000ff</color></LineStyle><PolyStyle><fill>0</fill></PolyStyle></Style>
	<ExtendedData><SchemaData schemaUrl="#damage_swesph_railways">
		<SimpleData name="osm_id">782449334</SimpleData>
		<SimpleData name="type">rail</SimpleData>
		<SimpleData name="depth_cls">0.5-1.5 m</SimpleData>
		<SimpleData name="max_depth">1.49</SimpleData>
		<SimpleData name="length_m">40</SimpleData>
	</SchemaData></ExtendedData>
      <LineString><coordinates>79.1154571175675,14.2375705882934 79.1155144014105,14.2373988902042 79.1155716851518,14.2372271920882</coordinates></LineString>
  </Placemark>
  <Placemark id="damage_swesph_railways.20">
	<Style><LineStyle><color>ff0000ff</color></LineStyle><PolyStyle><fill>0</fill></PolyStyle></Style>
	<ExtendedData><SchemaData schemaUrl="#damage_swesph_railways">
		<SimpleData name="osm_id">782449334</SimpleData>
		<SimpleData name="type">rail</SimpleData>
		<SimpleData name="depth_cls">&gt;1.5 m</SimpleData>
		<SimpleData name="max_depth">1.79</SimpleData>
		<SimpleData name="length_m">59.9</SimpleData>
	</SchemaData></ExtendedData>
      <LineString><coordinates>79.1155716851518,14.2372271920882 79.1156289687915,14.2370554939455 79.1156862523294,14.2368837957759 79.1157435357657,14.2367120975797</coordinates></LineString>
  </Placemark>
  <Placemark id="damage_swesph_railways.21">
	<Style><LineStyle><color>ff0000ff</color></LineStyle><PolyStyle><fill>0</fill></PolyStyle></Style>
	<ExtendedData><SchemaData schemaUrl="#damage_swesph_railways">
		<SimpleData name="osm_id">782449334</SimpleData>
		<SimpleData name="type">rail</SimpleData>
		<SimpleData name="depth_cls">0.5-1.5 m</SimpleData>
		<SimpleData name="max_depth">1.34</SimpleData>
		<SimpleData name="length_m">40</SimpleData>
	</SchemaData></ExtendedData>
      <LineString><coordinates>79.1157435357657,14.2367120975797 79.1158008191002,14.2365403993566 79.11585892146,14.2363689640094</coordinates></LineString>
  </Placemark>
  <Placemark id="damage_swesph_railways.22">
	<Style><LineStyle><color>ff0000ff</color></LineStyle><PolyStyle><fill>0</fill></PolyStyle></Style>
	<ExtendedData><SchemaData schemaUrl="#damage_swesph_railways">
		<SimpleData name="osm_id">782449334</SimpleData>
		<SimpleData name="type">rail</SimpleData>
		<SimpleData name="depth_cls">&gt;1.5 m</SimpleData>
		<SimpleData name="max_depth">1.56</SimpleData>
		<SimpleData name="length_m">40</SimpleData>
	</SchemaData></ExtendedData>
      <LineString><coordinates>79.11585892146,14.2363689640094 79.1159173517673,14.236197633924 79.1159757819715,14.2360263038112</coordinates></LineString>
  </Placemark>
  <Placemark id="damage_swesph_railways.23">
	<Style><LineStyle><color>ff0000ff</color></LineStyle><PolyStyle><fill>0</fill></PolyStyle></Style>
	<ExtendedData><SchemaData schemaUrl="#damage_swesph_railways">
		<SimpleData name="osm_id">782449334</SimpleData>
		<SimpleData name="type">rail</SimpleData>
		<SimpleData name="depth_cls">0.5-1.5 m</SimpleData>
		<SimpleData name="max_depth">1.39</SimpleData>
		<SimpleData name="length_m">40</SimpleData>
	</SchemaData></ExtendedData>
      <LineString><coordinates>79.1159757819715,14.2360263038112 79.1160342120725,14.2358549736709 79.1160926420705,14.235683643503</coordinates></LineString>
  </Placemark>
  <Placemark id="damage_swesph_railways.24">
	<Style><LineStyle><color>ff0000ff</color></LineStyle><PolyStyle><fill>0</fill></PolyStyle></Style>
	<ExtendedData><SchemaData schemaUrl="#damage_swesph_railways">
		<SimpleData name="osm_id">782449334</SimpleData>
		<SimpleData name="type">rail</SimpleData>
		<SimpleData name="depth_cls">&gt;1.5 m</SimpleData>
		<SimpleData name="max_depth">1.57</SimpleData>
		<SimpleData name="length_m">20</SimpleData>
	</SchemaData></ExtendedData>
      <LineString><coordinates>79.1160926420705,14.235683643503 79.1161510719655,14.2355123133077</coordinates></LineString>
  </Placemark>
  <Placemark id="damage_swesph_railways.25">
	<Style><LineStyle><color>ff0000ff</color></LineStyle><PolyStyle><fill>0</fill></PolyStyle></Style>
	<ExtendedData><SchemaData schemaUrl="#damage_swesph_railways">
		<SimpleData name="osm_id">782449334</SimpleData>
		<SimpleData name="type">rail</SimpleData>
		<SimpleData name="depth_cls">0.5-1.5 m</SimpleData>
		<SimpleData name="max_depth">1.31</SimpleData>
		<SimpleData name="length_m">219.8</SimpleData>
	</SchemaData></ExtendedData>
      <LineString><coordinates>79.1161510719655,14.2355123133077 79.1162095017573,14.2353409830849 79.1162679314461,14.2351696528346 79.1163263610318,14.2349983225568 79.1163847905144,14.2348269922515 79.116443219894,14.2346556619187 79.1165016491704,14.2344843315584 79.1165600783439,14.2343130011706 79.1166188935917,14.2341417969342 79.1166780526091,14.2339707050262 79.1167372115226,14.2337996130904 79.1167963703322,14.2336285211265</coordinates></LineString>
  </Placemark>
  <Placemark id="damage_swesph_railways.26">
	<Style><LineStyle><color>ff0000ff</color></LineStyle><PolyStyle><fill>0</fill></PolyStyle></Style>
	<ExtendedData><SchemaData schemaUrl="#damage_swesph_railways">
		<SimpleData name="osm_id">782449334</SimpleData>
		<SimpleData name="type">rail</SimpleData>
		<SimpleData name="depth_cls">0.1-0.5 m</SimpleData>
		<SimpleData name="max_depth">0.41</SimpleData>
		<SimpleData name="length_m">99.9</SimpleData>
	</SchemaData></ExtendedData>
      <LineString><coordinates>79.1167963703322,14.2336285211265 79.1168555290377,14.2334574291347 79.1169146876394,14.233286337115 79.1169738461371,14.2331152450673 79.1170330045309,14.2329441529916 79.1170921628207,14.232773060888</coordinates></LineString>
  </Placemark>
  <Placemark id="damage_swesph_railways.27">
	<Style><LineStyle><color>ff0000ff</color></LineStyle><PolyStyle><fill>0</fill></PolyStyle></Style>
	<ExtendedData><SchemaData schemaUrl="#damage_swesph_railways">
		<SimpleData name="osm_id">782449337</SimpleData>
		<SimpleData name="type">rail</SimpleData>
		<SimpleData name="depth_cls">0.5-1.5 m</SimpleData>
		<SimpleData name="max_depth">0.65</SimpleData>
		<SimpleData name="length_m">23.1</SimpleData>
	</SchemaData></ExtendedData>
      <LineString><coordinates>79.1130721,14.2446227 79.1131031000162,14.2445227500041 79.1131341,14.2444228</coordinates></LineString>
  </Placemark>
  <Placemark id="damage_swesph_railways.28">
	<Style><LineStyle><color>ff0000ff</color></LineStyle><PolyStyle><fill>0</fill></PolyStyle></Style>
	<ExtendedData><SchemaData schemaUrl="#damage_swesph_railways">
		<SimpleData name="osm_id">782449335</SimpleData>
		<SimpleData name="type">rail</SimpleData>
		<SimpleData name="depth_cls">0.5-1.5 m</SimpleData>
		<SimpleData name="max_depth">0.65</SimpleData>
		<SimpleData name="length_m">22.2</SimpleData>
	</SchemaData></ExtendedData>
      <LineString><coordinates>79.1131196,14.2446345 79.1131485000147,14.2445380000036 79.1131774,14.2444415</coordinates></LineString>
  </Placemark>
  <Placemark id="damage_swesph_railways.29">
	<Style><LineStyle><color>ff0000ff</color></LineStyle><PolyStyle><fill>0</fill></PolyStyle></Style>
	<ExtendedData><SchemaData schemaUrl="#damage_swesph_railways">
		<SimpleData name="osm_id">782449330</SimpleData>
		<SimpleData name="type">rail</SimpleData>
		<SimpleData name="depth_cls">0.1-0.5 m</SimpleData>
		<SimpleData name="max_depth">0.36</SimpleData>
		<SimpleData name="length_m">39.4</SimpleData>
	</SchemaData></ExtendedData>
      <LineString><coordinates>79.1112385,14.2504021 79.1112928426002,14.2502322369086 79.111347185104,14.2500623737925</coordinates></LineString>
  </Placemark>
  <Placemark id="damage_swesph_railways.30">
	<Style><LineStyle><color>ff0000ff</color></LineStyle><PolyStyle><fill>0</fill></PolyStyle></Style>
	<ExtendedData><SchemaData schemaUrl="#damage_swesph_railways">
		<SimpleData name="osm_id">782449330</SimpleData>
		<SimpleData name="type">rail</SimpleData>
		<SimpleData name="depth_cls">0.5-1.5 m</SimpleData>
		<SimpleData name="max_depth">0.55</SimpleData>
		<SimpleData name="length_m">19.7</SimpleData>
	</SchemaData></ExtendedData>
      <LineString><coordinates>79.111347185104,14.2500623737925 79.1114015275116,14.2498925106517</coordinates></LineString>
  </Placemark>
  <Placemark id="damage_swesph_railways.31">
	<Style><LineStyle><color>ff0000ff</color></LineStyle><PolyStyle><fill>0</fill></PolyStyle></Style>
	<ExtendedData><SchemaData schemaUrl="#damage_swesph_railways">
		<SimpleData name="osm_id">782449330</SimpleData>
		<SimpleData name="type">rail</SimpleData>
		<SimpleData name="depth_cls">0.1-0.5 m</SimpleData>
		<SimpleData name="max_depth">0.49</SimpleData>
		<SimpleData name="length_m">19.7</SimpleData>
	</SchemaData></ExtendedData>
      <LineString><coordinates>79.1114015275116,14.2498925106517 79.1114558698229,14.2497226474862</coordinates></LineString>
  </Placemark>
  <Placemark id="damage_swesph_railways.32">
	<Style><LineStyle><color>ff0000ff</color></LineStyle><PolyStyle><fill>0</fill></PolyStyle></Style>
	<ExtendedData><SchemaData schemaUrl="#damage_swesph_railways">
		<SimpleData name="osm_id">782449330</SimpleData>
		<SimpleData name="type">rail</SimpleData>
		<SimpleData name="depth_cls">0.5-1.5 m</SimpleData>
		<SimpleData name="max_depth">1.47</SimpleData>
		<SimpleData name="length_m">590.7</SimpleData>
	</SchemaData></ExtendedData>
      <LineString><coordinates>79.1114558698229,14.2497226474862 79.1115102120379,14.2495527842959 79.1115645541566,14.249382921081 79.111618896179,14.2492130578413 79.1116732381051,14.249043194577 79.111727579935,14.2488733312879 79.1117819216685,14.2487034679741 79.1118362633058,14.2485336046356 79.1118906048467,14.2483637412724 79.1119449462915,14.2481938778845 79.1119992876399,14.2480240144718 79.112053628892,14.2478541510345 79.1121079700479,14.2476842875725 79.1121623111075,14.2475144240857 79.1122166520708,14.2473445605743 79.1122709929379,14.2471746970381 79.1123253337086,14.2470048334772 79.1123761628899,14.2468339535533 79.1124256075175,14.2466626728995 79.1124750520549,14.2464913922239 79.1125281229894,14.2463211617857 79.1125825211239,14.2461513157184 79.1126369191621,14.2459814696264 79.112691317104,14.2458116235097 79.1127457149496,14.2456417773682 79.1128001126988,14.245471931202 79.1128545103517,14.2453020850111 79.1129089079082,14.2451322387954 79.1129633053685,14.244962392555 79.1130177027324,14.2447925462899 79.1130721,14.2446227</coordinates></LineString>
  </Placemark>
  <Placemark id="damage_swesph_railways.33">
	<Style><LineStyle><color>ff0000ff</color></LineStyle><PolyStyle><fill>0</fill></PolyStyle></Style>
	<ExtendedData><SchemaData schemaUrl="#damage_swesph_railways">
		<SimpleData name="osm_id">782449332</SimpleData>
		<SimpleData name="type">rail</SimpleData>
		<SimpleData name="depth_cls">0.1-0.5 m</SimpleData>
		<SimpleData name="max_depth">0.49</SimpleData>
		<SimpleData name="length_m">78.4</SimpleData>
	</SchemaData></ExtendedData>
      <LineString><coordinates>79.111323,14.2503994 79.1113767461665,14.2502301096158 79.1114304922379,14.2500608192072 79.1114842382142,14.2498915287744 79.111537672682,14.24972214459</coordinates></LineString>
  </Placemark>
  <Placemark id="damage_swesph_railways.34">
	<Style><LineStyle><color>ff0000ff</color></LineStyle><PolyStyle><fill>0</fill></PolyStyle></Style>
	<ExtendedData><SchemaData schemaUrl="#damage_swesph_railways">
		<SimpleData name="osm_id">782449332</SimpleData>
		<SimpleData name="type">rail</SimpleData>
		<SimpleData name="depth_cls">0.5-1.5 m</SimpleData>
		<SimpleData name="max_depth">1.46</SimpleData>
		<SimpleData name="length_m">588.3</SimpleData>
	</SchemaData></ExtendedData>
      <LineString><coordinates>79.111537672682,14.24972214459 79.1115910753817,14.2495527508486 79.1116444779866,14.2493833570831 79.111697880497,14.2492139632935 79.1117512829128,14.2490445694799 79.1118046852339,14.2488751756421 79.1118580874604,14.2487057817804 79.1119114895923,14.2485363878945 79.1119626884901,14.248366351582 79.1120133664795,14.2481961633845 79.1120640443777,14.2480259751645 79.1121147221846,14.247855786922 79.1121653999004,14.2476855986572 79.1122160775249,14.2475154103699 79.1122667550583,14.2473452220601 79.1123174325004,14.2471750337279 79.1123681098514,14.2470048453733 79.1124210891679,14.2468353305721 79.1124748213404,14.2466660360583 79.1125285534179,14.2464967415202 79.1125822854003,14.2463274469579 79.1126360172878,14.2461581523713 79.1126897490803,14.2459888577604 79.1127434807777,14.2458195631253 79.1127972123802,14.2456502684659 79.1128509438877,14.2454809737822 79.1129046753001,14.2453116790743 79.1129584066176,14.2451423843421 79.1130121378401,14.2449730895857 79.1130658689675,14.244803794805 79.1131196,14.2446345</coordinates></LineString>
  </Placemark>
  <Placemark id="damage_swesph_railways.35">
	<Style><LineStyle><color>ff0000ff</color></LineStyle><PolyStyle><fill>0</fill></PolyStyle></Style>
	<ExtendedData><SchemaData schemaUrl="#damage_swesph_railways">
		<SimpleData name="osm_id">782449331</SimpleData>
		<SimpleData name="type">rail</SimpleData>
		<SimpleData name="depth_cls">0.1-0.5 m</SimpleData>
		<SimpleData name="max_depth">0.36</SimpleData>
		<SimpleData name="length_m">30.6</SimpleData>
	</SchemaData></ExtendedData>
      <LineString><coordinates>79.1111529,14.2506657 79.1111957000293,14.2505339000076 79.1112385,14.2504021</coordinates></LineString>
  </Placemark>
  <Placemark id="damage_swesph_railways.36">
	<Style><LineStyle><color>ff0000ff</color></LineStyle><PolyStyle><fill>0</fill></PolyStyle></Style>
	<ExtendedData><SchemaData schemaUrl="#damage_swesph_railways">
		<SimpleData name="osm_id">782449333</SimpleData>
		<SimpleData name="type">rail</SimpleData>
		<SimpleData name="depth_cls">0.1-0.5 m</SimpleData>
		<SimpleData name="max_depth">0.36</SimpleData>
		<SimpleData name="length_m">34.7</SimpleData>
	</SchemaData></ExtendedData>
      <LineString><coordinates>79.1112254,14.2506978 79.1112742000378,14.2505486000098 79.111323,14.2503994</coordinates></LineString>
  </Placemark>
  <Placemark id="damage_swesph_railways.37">
	<Style><LineStyle><color>ff0000ff</color></LineStyle><PolyStyle><fill>0</fill></PolyStyle></Style>
	<ExtendedData><SchemaData schemaUrl="#damage_swesph_railways">
		<SimpleData name="osm_id">245598682</SimpleData>
		<SimpleData name="type">rail</SimpleData>
		<SimpleData name="depth_cls">0.5-1.5 m</SimpleData>
		<SimpleData name="max_depth">0.88</SimpleData>
		<SimpleData name="length_m">93.8</SimpleData>
	</SchemaData></ExtendedData>
      <LineString><coordinates>79.1107334,14.2519582 79.1107858378085,14.2517966375799 79.1108382755289,14.2516350751369 79.1108907131611,14.2514735126711 79.1109431507052,14.2513119501826 79.1109955881611,14.2511503876711</coordinates></LineString>
  </Placemark>
  <Placemark id="damage_swesph_railways.38">
	<Style><LineStyle><color>ff0000ff</color></LineStyle><PolyStyle><fill>0</fill></PolyStyle></Style>
	<ExtendedData><SchemaData schemaUrl="#damage_swesph_railways">
		<SimpleData name="osm_id">245598682</SimpleData>
		<SimpleData name="type">rail</SimpleData>
		<SimpleData name="depth_cls">0.1-0.5 m</SimpleData>
		<SimpleData name="max_depth">0.49</SimpleData>
		<SimpleData name="length_m">56.3</SimpleData>
	</SchemaData></ExtendedData>
      <LineString><coordinates>79.1109955881611,14.2511503876711 79.1110480255289,14.2509888251369 79.1111004628085,14.2508272625799 79.1111529,14.2506657</coordinates></LineString>
  </Placemark>
  <Placemark id="damage_swesph_railways.39">
	<Style><LineStyle><color>ff0000ff</color></LineStyle><PolyStyle><fill>0</fill></PolyStyle></Style>
	<ExtendedData><SchemaData schemaUrl="#damage_swesph_railways">
		<SimpleData name="osm_id">114419904</SimpleData>
		<SimpleData name="type">rail</SimpleData>
		<SimpleData name="depth_cls">0.5-1.5 m</SimpleData>
		<SimpleData name="max_depth">0.88</SimpleData>
		<SimpleData name="length_m">94.2</SimpleData>
	</SchemaData></ExtendedData>
      <LineString><coordinates>79.1107818,14.2519892 79.1108372503226,14.2518277750865 79.1108927005531,14.2516663501482 79.1109481506913,14.2515049251853 79.1110036007374,14.2513435001976 79.1110590506913,14.2511820751853</coordinates></LineString>
  </Placemark>
  <Placemark id="damage_swesph_railways.40">
	<Style><LineStyle><color>ff0000ff</color></LineStyle><PolyStyle><fill>0</fill></PolyStyle></Style>
	<ExtendedData><SchemaData schemaUrl="#damage_swesph_railways">
		<SimpleData name="osm_id">114419904</SimpleData>
		<SimpleData name="type">rail</SimpleData>
		<SimpleData name="depth_cls">0.1-0.5 m</SimpleData>
		<SimpleData name="max_depth">0.49</SimpleData>
		<SimpleData name="length_m">56.5</SimpleData>
	</SchemaData></ExtendedData>
      <LineString><coordinates>79.1110590506913,14.2511820751853 79.111114500553,14.2510206501482 79.1111699503226,14.2508592250865 79.1112254,14.2506978</coordinates></LineString>
  </Placemark>
  <Placemark id="damage_swesph_railways.41">
	<Style><LineStyle><color>ff0000ff</color></LineStyle><PolyStyle><fill>0</fill></PolyStyle></Style>
	<ExtendedData><SchemaData schemaUrl="#damage_swesph_railways">
		<SimpleData name="osm_id">245598686</SimpleData>
		<SimpleData name="type">rail</SimpleData>
		<SimpleData name="depth_cls">0.5-1.5 m</SimpleData>
		<SimpleData name="max_depth">1.34</SimpleData>
		<SimpleData name="length_m">19.8</SimpleData>
	</SchemaData></ExtendedData>
      <LineString><coordinates>79.1075431,14.2612795 79.1076011081913,14.26111002255</coordinates></LineString>
  </Placemark>
  <Placemark id="damage_swesph_railways.42">
	<Style><LineStyle><color>ff0000ff</color></LineStyle><PolyStyle><fill>0</fill></PolyStyle></Style>
	<ExtendedData><SchemaData schemaUrl="#damage_swesph_railways">
		<SimpleData name="osm_id">245598686</SimpleData>
		<SimpleData name="type">rail</SimpleData>
		<SimpleData name="depth_cls">&gt;1.5 m</SimpleData>
		<SimpleData name="max_depth">3.57</SimpleData>
		<SimpleData name="length_m">1008.3</SimpleData>
	</SchemaData></ExtendedData>
      <LineString><coordinates>79.1076011081913,14.26111002255 79.1076591162812,14.2609405450729 79.1077171242697,14.2607710675687 79.1077751321569,14.2606015900374 79.1078331399426,14.2604321124789 79.107891147627,14.2602626348934 79.10794915521,14.2600931572807 79.1080071626916,14.259923679641 79.1080651700718,14.2597542019741 79.1081231773506,14.2595847242801 79.1081811845281,14.259415246559 79.1082391916042,14.2592457688107 79.1082971985789,14.2590762910354 79.1083552054523,14.258906813233 79.1084132122243,14.2587373354035 79.1084712188949,14.2585678575468 79.1085292254641,14.2583983796631 79.108587231932,14.2582289017522 79.1086452382985,14.2580594238142 79.1087032445637,14.2578899458492 79.1087612507275,14.257720467857 79.1088192567899,14.2575509898377 79.1088772627511,14.2573815117913 79.1089352686108,14.2572120337178 79.1089932743692,14.2570425556173 79.1090512800262,14.2568730774896 79.1091092855819,14.2567035993348 79.1091672910362,14.2565341211529 79.1092252963892,14.2563646429439 79.1092833016409,14.2561951647078 79.1093413067912,14.2560256864446 79.1093993118401,14.2558562081544 79.1094573167877,14.255686729837 79.109515321634,14.2555172514925 79.109573326379,14.2553477731209 79.1096313310226,14.2551782947223 79.1096893355649,14.2550088162965 79.1097473400058,14.2548393378436 79.1098053443455,14.2546698593637 79.1098633485837,14.2545003808566 79.1099213527207,14.2543309023225 79.1099793567564,14.2541614237612 79.1100373606907,14.2539919451729 79.1100953645237,14.2538224665575 79.1101533682554,14.253652987915 79.1102113718857,14.2534835092454 79.1102693754148,14.2533140305487 79.1103273788425,14.2531445518249 79.1103853821689,14.252975073074 79.110443385394,14.2528055942961 79.1105013885179,14.252636115491 79.1105593915403,14.2524666366589</coordinates></LineString>
  </Placemark>
  <Placemark id="damage_swesph_railways.43">
	<Style><LineStyle><color>ff0000ff</color></LineStyle><PolyStyle><fill>0</fill></PolyStyle></Style>
	<ExtendedData><SchemaData schemaUrl="#damage_swesph_railways">
		<SimpleData name="osm_id">245598686</SimpleData>
		<SimpleData name="type">rail</SimpleData>
		<SimpleData name="depth_cls">0.5-1.5 m</SimpleData>
		<SimpleData name="max_depth">1.11</SimpleData>
		<SimpleData name="length_m">59.3</SimpleData>
	</SchemaData></ExtendedData>
      <LineString><coordinates>79.1105593915403,14.2524666366589 79.1106173944615,14.2522971577997 79.1106753972814,14.2521276789134 79.1107334,14.2519582</coordinates></LineString>
  </Placemark>
  <Placemark id="damage_swesph_railways.44">
	<Style><LineStyle><color>ff0000ff</color></LineStyle><PolyStyle><fill>0</fill></PolyStyle></Style>
	<ExtendedData><SchemaData schemaUrl="#damage_swesph_railways">
		<SimpleData name="osm_id">114419939</SimpleData>
		<SimpleData name="type">rail</SimpleData>
		<SimpleData name="depth_cls">0.5-1.5 m</SimpleData>
		<SimpleData name="max_depth">1.34</SimpleData>
		<SimpleData name="length_m">19.7</SimpleData>
	</SchemaData></ExtendedData>
      <LineString><coordinates>79.107603,14.2612932 79.1076607990863,14.2611240370909</coordinates></LineString>
  </Placemark>
  <Placemark id="damage_swesph_railways.45">
	<Style><LineStyle><color>ff0000ff</color></LineStyle><PolyStyle><fill>0</fill></PolyStyle></Style>
	<ExtendedData><SchemaData schemaUrl="#damage_swesph_railways">
		<SimpleData name="osm_id">114419939</SimpleData>
		<SimpleData name="type">rail</SimpleData>
		<SimpleData name="depth_cls">&gt;1.5 m</SimpleData>
		<SimpleData name="max_depth">3.57</SimpleData>
		<SimpleData name="length_m">986.5</SimpleData>
	</SchemaData></ExtendedData>
      <LineString><coordinates>79.1076607990863,14.2611240370909 79.1077185980718,14.2609548741549 79.1077763969564,14.2607857111919 79.1078341957401,14.260616548202 79.1078919944229,14.2604473851851 79.1079497930049,14.2602782221413 79.108007591486,14.2601090590706 79.1080653898663,14.2599398959729 79.1081231881457,14.2597707328482 79.1081809863243,14.2596015696966 79.108238784402,14.2594324065181 79.1082965823788,14.2592632433127 79.1083543802548,14.2590940800803 79.10841217803,14.2589249168209 79.1084699757043,14.2587557535347 79.1085277732777,14.2585865902214 79.1085855707503,14.2584174268813 79.1086433681221,14.2582482635142 79.108701165393,14.2580791001202 79.1087589625631,14.2579099366992 79.1088167596324,14.2577407732513 79.1088745566008,14.2575716097765 79.1089323534683,14.2574024462747 79.1089901502351,14.257233282746 79.109047946901,14.2570641191904 79.1091057434661,14.2568949556078 79.1091635399303,14.2567257919983 79.1092213362938,14.2565566283619 79.1092791325564,14.2563874646985 79.1093369287182,14.2562183010082 79.1093947247791,14.256049137291 79.1094525207393,14.2558799735468 79.1095103165986,14.2557108097757 79.1095681123571,14.2555416459777 79.1096259080148,14.2553724821528 79.1096837035717,14.2552033183009 79.1097414990277,14.2550341544221 79.109799294383,14.2548649905164 79.1098570896374,14.2546958265838 79.1099148847911,14.2545266626242 79.1099726798439,14.2543574986377 79.1100304747959,14.2541883346243 79.1100882696472,14.2540191705839 79.1101460643976,14.2538500065167 79.1102038590472,14.2536808424225 79.1102616535961,14.2535116783014 79.1103194480441,14.2533425141533 79.1103772423914,14.2531733499784 79.1104350366378,14.2530041857765 79.1104928307835,14.2528350215477 79.1105506248283,14.252665857292</coordinates></LineString>
  </Placemark>
  <Placemark id="damage_swesph_railways.46">
	<Style><LineStyle><color>ff0000ff</color></LineStyle><PolyStyle><fill>0</fill></PolyStyle></Style>
	<ExtendedData><SchemaData schemaUrl="#damage_swesph_railways">
		<SimpleData name="osm_id">114419939</SimpleData>
		<SimpleData name="type">rail</SimpleData>
		<SimpleData name="depth_cls">0.5-1.5 m</SimpleData>
		<SimpleData name="max_depth">1.37</SimpleData>
		<SimpleData name="length_m">78.9</SimpleData>
	</SchemaData></ExtendedData>
      <LineString><coordinates>79.1105506248283,14.252665857292 79.1106084187724,14.2524966930094 79.1106662126157,14.2523275286998 79.1107240063583,14.2521583643634 79.1107818,14.2519892</coordinates></LineString>
  </Placemark>
  <Placemark id="damage_swesph_railways.47">
	<Style><LineStyle><color>ff0000ff</color></LineStyle><PolyStyle><fill>0</fill></PolyStyle></Style>
	<ExtendedData><SchemaData schemaUrl="#damage_swesph_railways">
		<SimpleData name="osm_id">643043293</SimpleData>
		<SimpleData name="type">rail</SimpleData>
		<SimpleData name="depth_cls">&gt;1.5 m</SimpleData>
		<SimpleData name="max_depth">2.18</SimpleData>
		<SimpleData name="length_m">75.9</SimpleData>
	</SchemaData></ExtendedData>
      <LineString><coordinates>79.1056516,14.2658953 79.1057222501641,14.2657382000525 79.1057929002188,14.26558110007 79.1058635501641,14.2654240000525 79.1059342,14.2652669</coordinates></LineString>
  </Placemark>
  <Placemark id="damage_swesph_railways.48">
	<Style><LineStyle><color>ff0000ff</color></LineStyle><PolyStyle><fill>0</fill></PolyStyle></Style>
	<ExtendedData><SchemaData schemaUrl="#damage_swesph_railways">
		<SimpleData name="osm_id">643043285</SimpleData>
		<SimpleData name="type">rail</SimpleData>
		<SimpleData name="depth_cls">0.5-1.5 m</SimpleData>
		<SimpleData name="max_depth">1.49</SimpleData>
		<SimpleData name="length_m">38</SimpleData>
	</SchemaData></ExtendedData>
      <LineString><coordinates>79.1050349,14.2674884 79.1051012002106,14.267329280064 79.1051675003158,14.2671701600959</coordinates></LineString>
  </Placemark>
  <Placemark id="damage_swesph_railways.49">
	<Style><LineStyle><color>ff0000ff</color></LineStyle><PolyStyle><fill>0</fill></PolyStyle></Style>
	<ExtendedData><SchemaData schemaUrl="#damage_swesph_railways">
		<SimpleData name="osm_id">643043285</SimpleData>
		<SimpleData name="type">rail</SimpleData>
		<SimpleData name="depth_cls">&gt;1.5 m</SimpleData>
		<SimpleData name="max_depth">2.03</SimpleData>
		<SimpleData name="length_m">57</SimpleData>
	</SchemaData></ExtendedData>
      <LineString><coordinates>79.1051675003158,14.2671701600959 79.1052338003158,14.2670110400959 79.1053001002105,14.266851920064 79.1053664,14.2666928</coordinates></LineString>
  </Placemark>
  <Placemark id="damage_swesph_railways.50">
	<Style><LineStyle><color>ff0000ff</color></LineStyle><PolyStyle><fill>0</fill></PolyStyle></Style>
	<ExtendedData><SchemaData schemaUrl="#damage_swesph_railways">
		<SimpleData name="osm_id">643043294</SimpleData>
		<SimpleData name="type">rail</SimpleData>
		<SimpleData name="depth_cls">0.5-1.5 m</SimpleData>
		<SimpleData name="max_depth">1.3</SimpleData>
		<SimpleData name="length_m">69.5</SimpleData>
	</SchemaData></ExtendedData>
      <LineString><coordinates>79.1048998,14.2682273 79.1049604001321,14.2680817250401 79.1050210001761,14.2679361500535 79.1050816001321,14.2677905750401 79.1051422,14.267645</coordinates></LineString>
  </Placemark>
  <Placemark id="damage_swesph_railways.51">
	<Style><LineStyle><color>ff0000ff</color></LineStyle><PolyStyle><fill>0</fill></PolyStyle></Style>
	<ExtendedData><SchemaData schemaUrl="#damage_swesph_railways">
		<SimpleData name="osm_id">643043284</SimpleData>
		<SimpleData name="type">rail</SimpleData>
		<SimpleData name="depth_cls">0.5-1.5 m</SimpleData>
		<SimpleData name="max_depth">1.3</SimpleData>
		<SimpleData name="length_m">107.1</SimpleData>
	</SchemaData></ExtendedData>
      <LineString><coordinates>79.1045936,14.268675 79.1046510431214,14.2685236857898 79.1047084861547,14.2683723715544 79.1047659291,14.2682210572938 79.1048233719571,14.2680697430081 79.1048808147262,14.2679184286972 79.1049382574071,14.2677671143612</coordinates></LineString>
  </Placemark>
  <Placemark id="damage_swesph_railways.52">
	<Style><LineStyle><color>ff0000ff</color></LineStyle><PolyStyle><fill>0</fill></PolyStyle></Style>
	<ExtendedData><SchemaData schemaUrl="#damage_swesph_railways">
		<SimpleData name="osm_id">643043284</SimpleData>
		<SimpleData name="type">rail</SimpleData>
		<SimpleData name="depth_cls">&gt;1.5 m</SimpleData>
		<SimpleData name="max_depth">1.57</SimpleData>
		<SimpleData name="length_m">17.9</SimpleData>
	</SchemaData></ExtendedData>
      <LineString><coordinates>79.1049382574071,14.2677671143612 79.1049957,14.2676158</coordinates></LineString>
  </Placemark>
  <Placemark id="damage_swesph_railways.53">
	<Style><LineStyle><color>ff0000ff</color></LineStyle><PolyStyle><fill>0</fill></PolyStyle></Style>
	<ExtendedData><SchemaData schemaUrl="#damage_swesph_railways">
		<SimpleData name="osm_id">245598680</SimpleData>
		<SimpleData name="type">rail</SimpleData>
		<SimpleData name="depth_cls">0.1-0.5 m</SimpleData>
		<SimpleData name="max_depth">0.47</SimpleData>
		<SimpleData name="length_m">199.4</SimpleData>
	</SchemaData></ExtendedData>
      <LineString><coordinates>79.1033678,14.2797674 79.1033648238863,14.279587238064 79.1033618477586,14.2794070761259 79.1033623758328,14.2792270419495 79.1033791373561,14.279047599641 79.1033803107825,14.2788674887195 79.1033797676768,14.2786873041702 79.10337833885,14.2785071262404 79.1033709354903,14.2783272027737 79.1033548830563,14.2781476988058 79.1033374381467,14.277968333749</coordinates></LineString>
  </Placemark>
  <Placemark id="damage_swesph_railways.54">
	<Style><LineStyle><color>ff0000ff</color></LineStyle><PolyStyle><fill>0</fill></PolyStyle></Style>
	<ExtendedData><SchemaData schemaUrl="#damage_swesph_railways">
		<SimpleData name="osm_id">245598680</SimpleData>
		<SimpleData name="type">rail</SimpleData>
		<SimpleData name="depth_cls">0.5-1.5 m</SimpleData>
		<SimpleData name="max_depth">0.7</SimpleData>
		<SimpleData name="length_m">119.6</SimpleData>
	</SchemaData></ExtendedData>
      <LineString><coordinates>79.1033374381467,14.277968333749 79.1033158928134,14.277789377744 79.103294347496,14.2776104217386 79.1032728021946,14.277431465733 79.1032516290768,14.2772524692559 79.1032322260071,14.2770732802969 79.1032128229498,14.2768940913376</coordinates></LineString>
  </Placemark>
  <Placemark id="damage_swesph_railways.55">
	<Style><LineStyle><color>ff0000ff</color></LineStyle><PolyStyle><fill>0</fill></PolyStyle></Style>
	<ExtendedData><SchemaData schemaUrl="#damage_swesph_railways">
		<SimpleData name="osm_id">245598680</SimpleData>
		<SimpleData name="type">rail</SimpleData>
		<SimpleData name="depth_cls">0.1-0.5 m</SimpleData>
		<SimpleData name="max_depth">0.38</SimpleData>
		<SimpleData name="length_m">119.6</SimpleData>
	</SchemaData></ExtendedData>
      <LineString><coordinates>79.1032128229498,14.2768940913376 79.1031975877496,14.2767146690825 79.1031958412889,14.2765344917923 79.1031940948124,14.2763543144999 79.1032004018232,14.2761742689685 79.1032083443456,14.2759942501919 79.1032162868369,14.2758142314109</coordinates></LineString>
  </Placemark>
  <Placemark id="damage_swesph_railways.56">
	<Style><LineStyle><color>ff0000ff</color></LineStyle><PolyStyle><fill>0</fill></PolyStyle></Style>
	<ExtendedData><SchemaData schemaUrl="#damage_swesph_railways">
		<SimpleData name="osm_id">245598680</SimpleData>
		<SimpleData name="type">rail</SimpleData>
		<SimpleData name="depth_cls">0.1-0.5 m</SimpleData>
		<SimpleData name="max_depth">0.36</SimpleData>
		<SimpleData name="length_m">79.8</SimpleData>
	</SchemaData></ExtendedData>
      <LineString><coordinates>79.1042032530388,14.2697810985322 79.1042670609403,14.2696120004014 79.1043255801412,14.2694411224008 79.104388774196,14.2692718714178 79.1044548133282,14.2691035972301</coordinates></LineString>
  </Placemark>
  <Placemark id="damage_swesph_railways.57">
	<Style><LineStyle><color>ff0000ff</color></LineStyle><PolyStyle><fill>0</fill></PolyStyle></Style>
	<ExtendedData><SchemaData schemaUrl="#damage_swesph_railways">
		<SimpleData name="osm_id">245598680</SimpleData>
		<SimpleData name="type">rail</SimpleData>
		<SimpleData name="depth_cls">0.5-1.5 m</SimpleData>
		<SimpleData name="max_depth">1.42</SimpleData>
		<SimpleData name="length_m">159.5</SimpleData>
	</SchemaData></ExtendedData>
      <LineString><coordinates>79.1044548133282,14.2691035972301 79.1045150392579,14.2689332541595 79.1045702748166,14.2687614337414 79.1046165430714,14.2685869916779 79.1046620675859,14.2684123619544 79.1047075920139,14.2682377322111 79.1047697802933,14.2680680727134 79.1048321940273,14.2678984804629 79.1048945291052,14.2677288613564</coordinates></LineString>
  </Placemark>
  <Placemark id="damage_swesph_railways.58">
	<Style><LineStyle><color>ff0000ff</color></LineStyle><PolyStyle><fill>0</fill></PolyStyle></Style>
	<ExtendedData><SchemaData schemaUrl="#damage_swesph_railways">
		<SimpleData name="osm_id">245598680</SimpleData>
		<SimpleData name="type">rail</SimpleData>
		<SimpleData name="depth_cls">&gt;1.5 m</SimpleData>
		<SimpleData name="max_depth">1.83</SimpleData>
		<SimpleData name="length_m">39.9</SimpleData>
	</SchemaData></ExtendedData>
      <LineString><coordinates>79.1048945291052,14.2677288613564 79.1049542305567,14.267558342821 79.1050139319036,14.2673878242573</coordinates></LineString>
  </Placemark>
  <Placemark id="damage_swesph_railways.59">
	<Style><LineStyle><color>ff0000ff</color></LineStyle><PolyStyle><fill>0</fill></PolyStyle></Style>
	<ExtendedData><SchemaData schemaUrl="#damage_swesph_railways">
		<SimpleData name="osm_id">245598680</SimpleData>
		<SimpleData name="type">rail</SimpleData>
		<SimpleData name="depth_cls">0.5-1.5 m</SimpleData>
		<SimpleData name="max_depth">1.49</SimpleData>
		<SimpleData name="length_m">19.9</SimpleData>
	</SchemaData></ExtendedData>
      <LineString><coordinates>79.1050139319036,14.2673878242573 79.1050736331458,14.2672173056652</coordinates></LineString>
  </Placemark>
  <Placemark id="damage_swesph_railways.60">
	<Style><LineStyle><color>ff0000ff</color></LineStyle><PolyStyle><fill>0</fill></PolyStyle></Style>
	<ExtendedData><SchemaData schemaUrl="#damage_swesph_railways">
		<SimpleData name="osm_id">245598680</SimpleData>
		<SimpleData name="type">rail</SimpleData>
		<SimpleData name="depth_cls">&gt;1.5 m</SimpleData>
		<SimpleData name="max_depth">2.03</SimpleData>
		<SimpleData name="length_m">99.7</SimpleData>
	</SchemaData></ExtendedData>
      <LineString><coordinates>79.1050736331458,14.2672173056652 79.1051333342834,14.2670467870447 79.1051932487897,14.2668763396322 79.1052531659647,14.2667058931166 79.1053130830348,14.2665354465726 79.105373,14.266365</coordinates></LineString>
  </Placemark>
  <Placemark id="damage_swesph_railways.61">
	<Style><LineStyle><color>ff0000ff</color></LineStyle><PolyStyle><fill>0</fill></PolyStyle></Style>
	<ExtendedData><SchemaData schemaUrl="#damage_swesph_railways">
		<SimpleData name="osm_id">643043286</SimpleData>
		<SimpleData name="type">rail</SimpleData>
		<SimpleData name="depth_cls">&gt;1.5 m</SimpleData>
		<SimpleData name="max_depth">2</SimpleData>
		<SimpleData name="length_m">99.4</SimpleData>
	</SchemaData></ExtendedData>
      <LineString><coordinates>79.1054319,14.2663714 79.1053715574001,14.2665411809651 79.1053112146951,14.2667109619015 79.1052508718852,14.2668807428091 79.1051905289703,14.267050523688 79.1051301859503,14.2672203045381</coordinates></LineString>
  </Placemark>
  <Placemark id="damage_swesph_railways.62">
	<Style><LineStyle><color>ff0000ff</color></LineStyle><PolyStyle><fill>0</fill></PolyStyle></Style>
	<ExtendedData><SchemaData schemaUrl="#damage_swesph_railways">
		<SimpleData name="osm_id">643043286</SimpleData>
		<SimpleData name="type">rail</SimpleData>
		<SimpleData name="depth_cls">0.5-1.5 m</SimpleData>
		<SimpleData name="max_depth">1.49</SimpleData>
		<SimpleData name="length_m">39.8</SimpleData>
	</SchemaData></ExtendedData>
      <LineString><coordinates>79.1051301859503,14.2672203045381 79.1050698428254,14.2673900853594 79.1050126088541,14.2675608462468</coordinates></LineString>
  </Placemark>
  <Placemark id="damage_swesph_railways.63">
	<Style><LineStyle><color>ff0000ff</color></LineStyle><PolyStyle><fill>0</fill></PolyStyle></Style>
	<ExtendedData><SchemaData schemaUrl="#damage_swesph_railways">
		<SimpleData name="osm_id">643043286</SimpleData>
		<SimpleData name="type">rail</SimpleData>
		<SimpleData name="depth_cls">&gt;1.5 m</SimpleData>
		<SimpleData name="max_depth">1.57</SimpleData>
		<SimpleData name="length_m">19.9</SimpleData>
	</SchemaData></ExtendedData>
      <LineString><coordinates>79.1050126088541,14.2675608462468 79.1049601422378,14.2677330977863</coordinates></LineString>
  </Placemark>
  <Placemark id="damage_swesph_railways.64">
	<Style><LineStyle><color>ff0000ff</color></LineStyle><PolyStyle><fill>0</fill></PolyStyle></Style>
	<ExtendedData><SchemaData schemaUrl="#damage_swesph_railways">
		<SimpleData name="osm_id">643043286</SimpleData>
		<SimpleData name="type">rail</SimpleData>
		<SimpleData name="depth_cls">0.5-1.5 m</SimpleData>
		<SimpleData name="max_depth">1.3</SimpleData>
		<SimpleData name="length_m">159.1</SimpleData>
	</SchemaData></ExtendedData>
      <LineString><coordinates>79.1049601422378,14.2677330977863 79.1049079054187,14.2679054160878 79.1048556685045,14.2680777343655 79.1048034314953,14.2682500526197 79.104751194391,14.2684223708502 79.1046996848193,14.2685948942553 79.1046495658825,14.2687678098367 79.1046034339128,14.268941714833 79.1045627170624,14.269116963659</coordinates></LineString>
  </Placemark>
  <Placemark id="damage_swesph_railways.65">
	<Style><LineStyle><color>ff0000ff</color></LineStyle><PolyStyle><fill>0</fill></PolyStyle></Style>
	<ExtendedData><SchemaData schemaUrl="#damage_swesph_railways">
		<SimpleData name="osm_id">643043286</SimpleData>
		<SimpleData name="type">rail</SimpleData>
		<SimpleData name="depth_cls">0.1-0.5 m</SimpleData>
		<SimpleData name="max_depth">0.29</SimpleData>
		<SimpleData name="length_m">59.7</SimpleData>
	</SchemaData></ExtendedData>
      <LineString><coordinates>79.1045627170624,14.269116963659 79.1045220001322,14.2692922124678 79.1044801604957,14.2694671976841 79.1044346403526,14.2696413187757</coordinates></LineString>
  </Placemark>
  <Placemark id="damage_swesph_railways.66">
	<Style><LineStyle><color>ff0000ff</color></LineStyle><PolyStyle><fill>0</fill></PolyStyle></Style>
	<ExtendedData><SchemaData schemaUrl="#damage_swesph_railways">
		<SimpleData name="osm_id">643043286</SimpleData>
		<SimpleData name="type">rail</SimpleData>
		<SimpleData name="depth_cls">0.1-0.5 m</SimpleData>
		<SimpleData name="max_depth">0.47</SimpleData>
		<SimpleData name="length_m">477.2</SimpleData>
	</SchemaData></ExtendedData>
      <LineString><coordinates>79.1034034680985,14.2763806743537 79.1034004329192,14.2765603413574 79.1033973977165,14.2767400083579 79.1033960698543,14.2769196748255 79.1033992223012,14.2770993399007 79.1034023747347,14.2772790049738 79.1034055271546,14.277458670045 79.1034086795609,14.2776383351142 79.1034129602006,14.2778179779606 79.1034172481915,14.2779976206602 79.1034215361707,14.278177263358 79.1034258241381,14.278356906054 79.103435211151,14.2785363463501 79.1034459070536,14.278715734691 79.1034566029549,14.278895123031 79.1034672988546,14.2790745113701 79.1034708245798,14.2792541116376 79.1034712877783,14.2794338024216 79.103471750959,14.2796134932032 79.103472214122,14.2797931839824 79.1034642584113,14.2799725816792 79.1034545182595,14.2801520097903 79.1034459455384,14.2803315065314 79.1034373727852,14.280511003268 79.1034288,14.2806905</coordinates></LineString>
  </Placemark>
  <Placemark id="damage_swesph_railways.67">
	<Style><LineStyle><color>ff0000ff</color></LineStyle><PolyStyle><fill>0</fill></PolyStyle></Style>
	<ExtendedData><SchemaData schemaUrl="#damage_swesph_railways">
		<SimpleData name="osm_id">245598663</SimpleData>
		<SimpleData name="type">rail</SimpleData>
		<SimpleData name="depth_cls">0.1-0.5 m</SimpleData>
		<SimpleData name="max_depth">0.4</SimpleData>
		<SimpleData name="length_m">277.9</SimpleData>
	</SchemaData></ExtendedData>
      <LineString><coordinates>79.1033769,14.2783939 79.1033723393321,14.2782145747333 79.1033677786529,14.2780352494648 79.1033632179625,14.2778559241947 79.1033586572609,14.2776765989227 79.1033531837609,14.2774972989783 79.1033472816413,14.2773180109259 79.1033413795127,14.2771387228719 79.1033354773749,14.2769594348164 79.1033295752281,14.2767801467594 79.1033236730722,14.2766008587009 79.1033239211327,14.2764214982274 79.1033253833152,14.2762421234559 79.1033268454769,14.2760627486814 79.1033283076178,14.2758833739042</coordinates></LineString>
  </Placemark>
  <Placemark id="damage_swesph_railways.68">
	<Style><LineStyle><color>ff0000ff</color></LineStyle><PolyStyle><fill>0</fill></PolyStyle></Style>
	<ExtendedData><SchemaData schemaUrl="#damage_swesph_railways">
		<SimpleData name="osm_id">245598663</SimpleData>
		<SimpleData name="type">rail</SimpleData>
		<SimpleData name="depth_cls">0.1-0.5 m</SimpleData>
		<SimpleData name="max_depth">0.36</SimpleData>
		<SimpleData name="length_m">59.5</SimpleData>
	</SchemaData></ExtendedData>
      <LineString><coordinates>79.1042836045543,14.2696849550339 79.1043399306674,14.2695141929547 79.1043951705395,14.2693431029477 79.1044476137881,14.2691711686555</coordinates></LineString>
  </Placemark>
  <Placemark id="damage_swesph_railways.69">
	<Style><LineStyle><color>ff0000ff</color></LineStyle><PolyStyle><fill>0</fill></PolyStyle></Style>
	<ExtendedData><SchemaData schemaUrl="#damage_swesph_railways">
		<SimpleData name="osm_id">245598663</SimpleData>
		<SimpleData name="type">rail</SimpleData>
		<SimpleData name="depth_cls">0.5-1.5 m</SimpleData>
		<SimpleData name="max_depth">0.55</SimpleData>
		<SimpleData name="length_m">39.7</SimpleData>
	</SchemaData></ExtendedData>
      <LineString><coordinates>79.1044476137881,14.2691711686555 79.1045000569416,14.2689992343396 79.1045525,14.2688273</coordinates></LineString>
  </Placemark>
  <Placemark id="damage_swesph_railways.70">
	<Style><LineStyle><color>ff0000ff</color></LineStyle><PolyStyle><fill>0</fill></PolyStyle></Style>
	<ExtendedData><SchemaData schemaUrl="#damage_swesph_railways">
		<SimpleData name="osm_id">643043292</SimpleData>
		<SimpleData name="type">rail</SimpleData>
		<SimpleData name="depth_cls">0.1-0.5 m</SimpleData>
		<SimpleData name="max_depth">0.47</SimpleData>
		<SimpleData name="length_m">537.5</SimpleData>
	</SchemaData></ExtendedData>
      <LineString><coordinates>79.1036091010726,14.281323297917 79.1036156981584,14.2811435061168 79.103621555019,14.2809636904774 79.1036271337179,14.2807838658779 79.1036327123893,14.2806040412746 79.10363603659,14.2804241651813 79.1036390953447,14.2802442830231 79.1036376024063,14.2800644088092 79.1036338832254,14.2798845384803 79.103630164032,14.2797046681495 79.1036258994894,14.2795248097836 79.1036213190956,14.2793449583466 79.1036162891279,14.2791651210157 79.1036090039257,14.2789853544553 79.1036017187165,14.2788055878935 79.1035944998075,14.2786258189244 79.1035880672961,14.2784460214189 79.1035816347763,14.278266223912 79.1035752022483,14.2780864264036 79.1035685879689,14.2779066352329 79.1035618333927,14.2777268489541 79.1035550788086,14.2775470626739 79.1035483242168,14.2773672763922 79.1035486886264,14.2771873859111 79.1035499079717,14.2770074829136 79.1035511272965,14.2768275799134 79.1035523466008,14.2766476769103 79.1035535658845,14.2764677739044</coordinates></LineString>
  </Placemark>
  <Placemark id="damage_swesph_railways.71">
	<Style><LineStyle><color>ff0000ff</color></LineStyle><PolyStyle><fill>0</fill></PolyStyle></Style>
	<ExtendedData><SchemaData schemaUrl="#damage_swesph_railways">
		<SimpleData name="osm_id">643043292</SimpleData>
		<SimpleData name="type">rail</SimpleData>
		<SimpleData name="depth_cls">0.1-0.5 m</SimpleData>
		<SimpleData name="max_depth">0.29</SimpleData>
		<SimpleData name="length_m">59.7</SimpleData>
	</SchemaData></ExtendedData>
      <LineString><coordinates>79.1045520267036,14.2697168311839 79.1045965570121,14.269542244675 79.1046430436112,14.2693681822408 79.1046870236257,14.2691934631037</coordinates></LineString>
  </Placemark>
  <Placemark id="damage_swesph_railways.72">
	<Style><LineStyle><color>ff0000ff</color></LineStyle><PolyStyle><fill>0</fill></PolyStyle></Style>
	<ExtendedData><SchemaData schemaUrl="#damage_swesph_railways">
		<SimpleData name="osm_id">643043292</SimpleData>
		<SimpleData name="type">rail</SimpleData>
		<SimpleData name="depth_cls">0.5-1.5 m</SimpleData>
		<SimpleData name="max_depth">0.55</SimpleData>
		<SimpleData name="length_m">19.9</SimpleData>
	</SchemaData></ExtendedData>
      <LineString><coordinates>79.1046870236257,14.2691934631037 79.1047310035558,14.2690187439477</coordinates></LineString>
  </Placemark>
  <Placemark id="damage_swesph_railways.73">
	<Style><LineStyle><color>ff0000ff</color></LineStyle><PolyStyle><fill>0</fill></PolyStyle></Style>
	<ExtendedData><SchemaData schemaUrl="#damage_swesph_railways">
		<SimpleData name="osm_id">643043292</SimpleData>
		<SimpleData name="type">rail</SimpleData>
		<SimpleData name="depth_cls">0.1-0.5 m</SimpleData>
		<SimpleData name="max_depth">0.38</SimpleData>
		<SimpleData name="length_m">19.9</SimpleData>
	</SchemaData></ExtendedData>
      <LineString><coordinates>79.1047310035558,14.2690187439477 79.104778045214,14.2688447886884</coordinates></LineString>
  </Placemark>
  <Placemark id="damage_swesph_railways.74">
	<Style><LineStyle><color>ff0000ff</color></LineStyle><PolyStyle><fill>0</fill></PolyStyle></Style>
	<ExtendedData><SchemaData schemaUrl="#damage_swesph_railways">
		<SimpleData name="osm_id">643043292</SimpleData>
		<SimpleData name="type">rail</SimpleData>
		<SimpleData name="depth_cls">0.5-1.5 m</SimpleData>
		<SimpleData name="max_depth">1.49</SimpleData>
		<SimpleData name="length_m">219</SimpleData>
	</SchemaData></ExtendedData>
      <LineString><coordinates>79.104778045214,14.2688447886884 79.104825497024,14.2686709357624 79.1048760964693,14.2684979421131 79.1049280813462,14.2683253266753 79.1049802000686,14.2681527507196 79.1050350081504,14.2679809679918 79.1050898161338,14.2678091852389 79.1051448440921,14.2676374726042 79.1052046278042,14.2674672757664 79.1052644114118,14.2672970789003 79.1053241949148,14.2671268820058 79.1053839783133,14.2669566850828</coordinates></LineString>
  </Placemark>
  <Placemark id="damage_swesph_railways.75">
	<Style><LineStyle><color>ff0000ff</color></LineStyle><PolyStyle><fill>0</fill></PolyStyle></Style>
	<ExtendedData><SchemaData schemaUrl="#damage_swesph_railways">
		<SimpleData name="osm_id">643043292</SimpleData>
		<SimpleData name="type">rail</SimpleData>
		<SimpleData name="depth_cls">&gt;1.5 m</SimpleData>
		<SimpleData name="max_depth">2.22</SimpleData>
		<SimpleData name="length_m">238.9</SimpleData>
	</SchemaData></ExtendedData>
      <LineString><coordinates>79.1053839783133,14.2669566850828 79.1054437616074,14.2667864881315 79.1055035447969,14.2666162911517 79.1055633278819,14.2664460941436 79.1056231108625,14.266275897107 79.105681859653,14.2661053605287 79.1057397800093,14.2659345519633 79.1057977002634,14.2657637433708 79.1058556204152,14.265592934751 79.1059135404648,14.265422126104 79.1059714604121,14.2652513174299 79.1060293802572,14.2650805087285 79.1060873,14.2649097</coordinates></LineString>
  </Placemark>
  <Placemark id="damage_swesph_railways.76">
	<Style><LineStyle><color>ff0000ff</color></LineStyle><PolyStyle><fill>0</fill></PolyStyle></Style>
	<ExtendedData><SchemaData schemaUrl="#damage_swesph_railways">
		<SimpleData name="osm_id">245598666</SimpleData>
		<SimpleData name="type">rail</SimpleData>
		<SimpleData name="depth_cls">0.1-0.5 m</SimpleData>
		<SimpleData name="max_depth">0.38</SimpleData>
		<SimpleData name="length_m">117.7</SimpleData>
	</SchemaData></ExtendedData>
      <LineString><coordinates>79.1032806854452,14.2758880669257 79.1032719183943,14.276065192234 79.1032631513119,14.2762423175378 79.1032663280616,14.276419526474 79.1032724862798,14.2765967562862 79.1032786444897,14.276773986097 79.1032869108705,14.2769511217254</coordinates></LineString>
  </Placemark>
  <Placemark id="damage_swesph_railways.77">
	<Style><LineStyle><color>ff0000ff</color></LineStyle><PolyStyle><fill>0</fill></PolyStyle></Style>
	<ExtendedData><SchemaData schemaUrl="#damage_swesph_railways">
		<SimpleData name="osm_id">245598666</SimpleData>
		<SimpleData name="type">rail</SimpleData>
		<SimpleData name="depth_cls">0.5-1.5 m</SimpleData>
		<SimpleData name="max_depth">0.67</SimpleData>
		<SimpleData name="length_m">98.1</SimpleData>
	</SchemaData></ExtendedData>
      <LineString><coordinates>79.1032869108705,14.2769511217254 79.1032973927197,14.2771281583785 79.1033074899161,14.2773052150031 79.1033163424433,14.277482336254 79.1033251949663,14.2776594575038 79.1033340474852,14.2778365787524</coordinates></LineString>
  </Placemark>
  <Placemark id="damage_swesph_railways.78">
	<Style><LineStyle><color>ff0000ff</color></LineStyle><PolyStyle><fill>0</fill></PolyStyle></Style>
	<ExtendedData><SchemaData schemaUrl="#damage_swesph_railways">
		<SimpleData name="osm_id">245598666</SimpleData>
		<SimpleData name="type">rail</SimpleData>
		<SimpleData name="depth_cls">0.1-0.5 m</SimpleData>
		<SimpleData name="max_depth">0.36</SimpleData>
		<SimpleData name="length_m">19.6</SimpleData>
	</SchemaData></ExtendedData>
      <LineString><coordinates>79.1033340474852,14.2778365787524 79.1033429,14.2780137</coordinates></LineString>
  </Placemark>
  <Placemark id="damage_swesph_railways.79">
	<Style><LineStyle><color>ff0000ff</color></LineStyle><PolyStyle><fill>0</fill></PolyStyle></Style>
	<ExtendedData><SchemaData schemaUrl="#damage_swesph_railways">
		<SimpleData name="osm_id">643043290</SimpleData>
		<SimpleData name="type">rail</SimpleData>
		<SimpleData name="depth_cls">0.1-0.5 m</SimpleData>
		<SimpleData name="max_depth">0.47</SimpleData>
		<SimpleData name="length_m">58.8</SimpleData>
	</SchemaData></ExtendedData>
      <LineString><coordinates>79.1036175,14.279195 79.1035931666463,14.2790193333336 79.1035688333129,14.2788436666669 79.1035445,14.278668</coordinates></LineString>
  </Placemark>
  <Placemark id="damage_swesph_railways.80">
	<Style><LineStyle><color>ff0000ff</color></LineStyle><PolyStyle><fill>0</fill></PolyStyle></Style>
	<ExtendedData><SchemaData schemaUrl="#damage_swesph_railways">
		<SimpleData name="osm_id">643043289</SimpleData>
		<SimpleData name="type">rail</SimpleData>
		<SimpleData name="depth_cls">0.1-0.5 m</SimpleData>
		<SimpleData name="max_depth">0.17</SimpleData>
		<SimpleData name="length_m">37.7</SimpleData>
	</SchemaData></ExtendedData>
      <LineString><coordinates>79.103512920008,14.2813511000028 79.1035036600053,14.2811809000019 79.1034944,14.2810107</coordinates></LineString>
  </Placemark>
  <Placemark id="damage_swesph_railways.81">
	<Style><LineStyle><color>ff0000ff</color></LineStyle><PolyStyle><fill>0</fill></PolyStyle></Style>
	<ExtendedData><SchemaData schemaUrl="#damage_swesph_railways">
		<SimpleData name="osm_id">643043291</SimpleData>
		<SimpleData name="type">rail</SimpleData>
		<SimpleData name="depth_cls">0.1-0.5 m</SimpleData>
		<SimpleData name="max_depth">0.43</SimpleData>
		<SimpleData name="length_m">60.3</SimpleData>
	</SchemaData></ExtendedData>
      <LineString><coordinates>79.1034651,14.2780933 79.1034845999805,14.2782283000002 79.103504099974,14.2783633000003 79.1035235999805,14.2784983000002 79.1035431,14.2786333</coordinates></LineString>
  </Placemark>
  <Placemark id="damage_swesph_railways.82">
	<Style><LineStyle><color>ff0000ff</color></LineStyle><PolyStyle><fill>0</fill></PolyStyle></Style>
	<ExtendedData><SchemaData schemaUrl="#damage_swesph_railways">
		<SimpleData name="osm_id">643043288</SimpleData>
		<SimpleData name="type">rail</SimpleData>
		<SimpleData name="depth_cls">0.1-0.5 m</SimpleData>
		<SimpleData name="max_depth">0.47</SimpleData>
		<SimpleData name="length_m">140.5</SimpleData>
	</SchemaData></ExtendedData>
      <LineString><coordinates>79.1034724,14.2798653 79.1034609824391,14.2797069363851 79.1034495648799,14.2795485727697 79.1034381473223,14.2793902091537 79.1034267297664,14.2792318455371 79.1034150233108,14.2790735020996 79.1034031822049,14.2789151680669 79.1033913411013,14.2787568340337 79.1033795,14.2785985</coordinates></LineString>
  </Placemark>
  <Placemark id="damage_swesph_railways.83">
	<Style><LineStyle><color>ff0000ff</color></LineStyle><PolyStyle><fill>0</fill></PolyStyle></Style>
	<ExtendedData><SchemaData schemaUrl="#damage_swesph_railways">
		<SimpleData name="osm_id">643043287</SimpleData>
		<SimpleData name="type">rail</SimpleData>
		<SimpleData name="depth_cls">0.1-0.5 m</SimpleData>
		<SimpleData name="max_depth">0.31</SimpleData>
		<SimpleData name="length_m">93</SimpleData>
	</SchemaData></ExtendedData>
      <LineString><coordinates>79.1034991,14.2808541 79.1034915000098,14.2806861200022 79.1034839000147,14.2805181400032 79.1034763000147,14.2803501600033 79.1034687000098,14.2801821800022 79.1034611,14.2800142</coordinates></LineString>
  </Placemark>
  <Placemark id="damage_swesph_railways.84">
	<Style><LineStyle><color>ff0000ff</color></LineStyle><PolyStyle><fill>0</fill></PolyStyle></Style>
	<ExtendedData><SchemaData schemaUrl="#damage_swesph_railways">
		<SimpleData name="osm_id">245598685</SimpleData>
		<SimpleData name="type">rail</SimpleData>
		<SimpleData name="depth_cls">0.1-0.5 m</SimpleData>
		<SimpleData name="max_depth">0.47</SimpleData>
		<SimpleData name="length_m">559.6</SimpleData>
	</SchemaData></ExtendedData>
      <LineString><coordinates>79.1034859225644,14.2814281121835 79.1034895898293,14.2812475441007 79.1034932570696,14.2810669760144 79.1034981294858,14.2808864367647 79.1035064692314,14.2807060214005 79.1035154464902,14.2805256302163 79.1035244237161,14.2803452390275 79.103533400909,14.280164847834 79.1035326634873,14.2799842667408 79.1035311056444,14.2798036696084 79.1035295477851,14.2796230724737 79.1035260522901,14.2794425164896 79.1035195466455,14.2792620244358 79.1035130409926,14.2790815323805 79.1035045324639,14.2789011211437 79.1034957265789,14.2787207219044 79.1034869206893,14.278540322664 79.1034781147951,14.2783599234224 79.1034693088962,14.2781795241796 79.1034604836201,14.277999125837 79.1034553474165,14.2778186364472 79.1034547832773,14.2776380337392 79.1034542191202,14.2774574310286 79.1034536549453,14.2772768283156 79.1034530907526,14.2770962256001 79.1034525265421,14.2769156228822 79.1034540158507,14.276735040422 79.103458326404,14.2765544857932 79.1034626369316,14.2763739311609</coordinates></LineString>
  </Placemark>
  <Placemark id="damage_swesph_railways.85">
	<Style><LineStyle><color>ff0000ff</color></LineStyle><PolyStyle><fill>0</fill></PolyStyle></Style>
	<ExtendedData><SchemaData schemaUrl="#damage_swesph_railways">
		<SimpleData name="osm_id">245598685</SimpleData>
		<SimpleData name="type">rail</SimpleData>
		<SimpleData name="depth_cls">0.1-0.5 m</SimpleData>
		<SimpleData name="max_depth">0.29</SimpleData>
		<SimpleData name="length_m">60</SimpleData>
	</SchemaData></ExtendedData>
      <LineString><coordinates>79.1044334679773,14.2697726222636 79.1044820752853,14.2695983511825 79.1045302316248,14.2694239678605 79.1045731939722,14.2692482918022</coordinates></LineString>
  </Placemark>
  <Placemark id="damage_swesph_railways.86">
	<Style><LineStyle><color>ff0000ff</color></LineStyle><PolyStyle><fill>0</fill></PolyStyle></Style>
	<ExtendedData><SchemaData schemaUrl="#damage_swesph_railways">
		<SimpleData name="osm_id">245598685</SimpleData>
		<SimpleData name="type">rail</SimpleData>
		<SimpleData name="depth_cls">0.5-1.5 m</SimpleData>
		<SimpleData name="max_depth">1.49</SimpleData>
		<SimpleData name="length_m">239.8</SimpleData>
	</SchemaData></ExtendedData>
      <LineString><coordinates>79.1045731939722,14.2692482918022 79.1046168550375,14.2690727900118 79.1046656396889,14.2688985660837 79.1047144242492,14.2687243421339 79.1047632087183,14.2685501181625 79.1048119930962,14.2683758941694 79.1048647790696,14.2682028074222 79.1049195927568,14.2680302969482 79.104974406345,14.267857786449 79.1050292198343,14.2676852759245 79.1050840332247,14.2675127653747 79.1051397179282,14.267340531461 79.105199534505,14.2671696093654</coordinates></LineString>
  </Placemark>
  <Placemark id="damage_swesph_railways.87">
	<Style><LineStyle><color>ff0000ff</color></LineStyle><PolyStyle><fill>0</fill></PolyStyle></Style>
	<ExtendedData><SchemaData schemaUrl="#damage_swesph_railways">
		<SimpleData name="osm_id">245598685</SimpleData>
		<SimpleData name="type">rail</SimpleData>
		<SimpleData name="depth_cls">&gt;1.5 m</SimpleData>
		<SimpleData name="max_depth">2.24</SimpleData>
		<SimpleData name="length_m">419.7</SimpleData>
	</SchemaData></ExtendedData>
      <LineString><coordinates>79.105199534505,14.2671696093654 79.1052593509767,14.2669986872414 79.1053191673433,14.2668277650889 79.105379229366,14.2666569256116 79.1054402137481,14.2664863965342 79.1055011980237,14.2663158674274 79.1055621821928,14.2661453382914 79.1056231662555,14.2659748091261 79.1056882056614,14.2658057573876 79.1057567875276,14.2656379962239 79.1058253692786,14.2654702350256 79.1058939509146,14.2653024737929 79.1059625324353,14.2651347125256 79.106031113841,14.2649669512237 79.1061015133423,14.2647999203396 79.1061739796894,14.2646337198056 79.1062464459172,14.2644675192343 79.1063189120256,14.2643013186256 79.1063913780147,14.2641351179795 79.1064638438846,14.263968917296 79.1065363096352,14.2638027165752 79.106609828878,14.2636369666092</coordinates></LineString>
  </Placemark>
  <Placemark id="damage_swesph_railways.88">
	<Style><LineStyle><color>ff0000ff</color></LineStyle><PolyStyle><fill>0</fill></PolyStyle></Style>
	<ExtendedData><SchemaData schemaUrl="#damage_swesph_railways">
		<SimpleData name="osm_id">245598685</SimpleData>
		<SimpleData name="type">rail</SimpleData>
		<SimpleData name="depth_cls">0.5-1.5 m</SimpleData>
		<SimpleData name="max_depth">1.43</SimpleData>
		<SimpleData name="length_m">99.9</SimpleData>
	</SchemaData></ExtendedData>
      <LineString><coordinates>79.106609828878,14.2636369666092 79.1066861358747,14.2634724094085 79.1067616587145,14.2633075235266 79.1068315618803,14.2631402820761 79.1069014649295,14.2629730405901 79.1069713678622,14.2628057990686</coordinates></LineString>
  </Placemark>
  <Placemark id="damage_swesph_railways.89">
	<Style><LineStyle><color>ff0000ff</color></LineStyle><PolyStyle><fill>0</fill></PolyStyle></Style>
	<ExtendedData><SchemaData schemaUrl="#damage_swesph_railways">
		<SimpleData name="osm_id">245598685</SimpleData>
		<SimpleData name="type">rail</SimpleData>
		<SimpleData name="depth_cls">0.1-0.5 m</SimpleData>
		<SimpleData name="max_depth">0.44</SimpleData>
		<SimpleData name="length_m">99.9</SimpleData>
	</SchemaData></ExtendedData>
      <LineString><coordinates>79.1069713678622,14.2628057990686 79.1070412706784,14.2626385575117 79.1071111733779,14.2624713159192 79.1071754519344,14.262301947529 79.1072394136705,14.2621324593413 79.1073033752967,14.2619629711224</coordinates></LineString>
  </Placemark>
  <Placemark id="damage_swesph_railways.90">
	<Style><LineStyle><color>ff0000ff</color></LineStyle><PolyStyle><fill>0</fill></PolyStyle></Style>
	<ExtendedData><SchemaData schemaUrl="#damage_swesph_railways">
		<SimpleData name="osm_id">245598685</SimpleData>
		<SimpleData name="type">rail</SimpleData>
		<SimpleData name="depth_cls">0.5-1.5 m</SimpleData>
		<SimpleData name="max_depth">1.34</SimpleData>
		<SimpleData name="length_m">79.9</SimpleData>
	</SchemaData></ExtendedData>
      <LineString><coordinates>79.1073033752967,14.2619629711224 79.1073671019566,14.2617934024834 79.1074257680747,14.2616221016833 79.1074844340892,14.2614508008555 79.1075431,14.2612795</coordinates></LineString>
  </Placemark>
  <Placemark id="damage_swesph_railways.91">
	<Style><LineStyle><color>ff0000ff</color></LineStyle><PolyStyle><fill>0</fill></PolyStyle></Style>
	<ExtendedData><SchemaData schemaUrl="#damage_swesph_railways">
		<SimpleData name="osm_id">245598684</SimpleData>
		<SimpleData name="type">rail</SimpleData>
		<SimpleData name="depth_cls">0.1-0.5 m</SimpleData>
		<SimpleData name="max_depth">0.47</SimpleData>
		<SimpleData name="length_m">559.4</SimpleData>
	</SchemaData></ExtendedData>
      <LineString><coordinates>79.103548892946,14.2814288327686 79.1035523097498,14.2812483067159 79.1035555957754,14.2810677785985 79.1035581640392,14.2808872391627 79.1035607322802,14.2807066997238 79.1035633004984,14.2805261602818 79.1035658686938,14.2803456208367 79.1035684368664,14.2801650813884 79.1035710050161,14.2799845419371 79.1035735731431,14.2798040024826 79.1035761412472,14.279623463025 79.1035770906953,14.2794429449706 79.1035695036774,14.2792625398081 79.1035619166529,14.2790821346443 79.1035543296219,14.2789017294791 79.1035467425843,14.2787213243126 79.1035392183551,14.2785409166805 79.1035316383033,14.2783605112315 79.103524058245,14.2781801057812 79.10351647818,14.2779997003296 79.1035088981085,14.2778192948767 79.1035029618221,14.2776388339663 79.1034977407162,14.277458348926 79.1034927037092,14.2772778614039 79.1034928110508,14.2770973045777 79.1034929183734,14.276916747749 79.1034943393403,14.2767362106576 79.1034999359948,14.2765557363101 79.1035055326218,14.2763752619589</coordinates></LineString>
  </Placemark>
  <Placemark id="damage_swesph_railways.92">
	<Style><LineStyle><color>ff0000ff</color></LineStyle><PolyStyle><fill>0</fill></PolyStyle></Style>
	<ExtendedData><SchemaData schemaUrl="#damage_swesph_railways">
		<SimpleData name="osm_id">245598684</SimpleData>
		<SimpleData name="type">rail</SimpleData>
		<SimpleData name="depth_cls">0.1-0.5 m</SimpleData>
		<SimpleData name="max_depth">0.29</SimpleData>
		<SimpleData name="length_m">59.9</SimpleData>
	</SchemaData></ExtendedData>
      <LineString><coordinates>79.1044767341853,14.2697763177978 79.1045222404867,14.2696013002514 79.1045677585045,14.2694262856074 79.1046133597527,14.2692512915721</coordinates></LineString>
  </Placemark>
  <Placemark id="damage_swesph_railways.93">
	<Style><LineStyle><color>ff0000ff</color></LineStyle><PolyStyle><fill>0</fill></PolyStyle></Style>
	<ExtendedData><SchemaData schemaUrl="#damage_swesph_railways">
		<SimpleData name="osm_id">245598684</SimpleData>
		<SimpleData name="type">rail</SimpleData>
		<SimpleData name="depth_cls">0.5-1.5 m</SimpleData>
		<SimpleData name="max_depth">1.49</SimpleData>
		<SimpleData name="length_m">239.8</SimpleData>
	</SchemaData></ExtendedData>
      <LineString><coordinates>79.1046133597527,14.2692512915721 79.1046591576838,14.2690763474124 79.1047067261096,14.2689018522034 79.1047542944459,14.2687273569735 79.1048018626926,14.2685528617226 79.1048513734046,14.2683789131274 79.1049064334513,14.2682065261991 79.1049614808851,14.2680341354441 79.1050165282198,14.2678617446636 79.1050715754552,14.2676893538577 79.1051266225915,14.2675169630264 79.1051816696286,14.2673445721697 79.1052424915154,14.2671740497777</coordinates></LineString>
  </Placemark>
  <Placemark id="damage_swesph_railways.94">
	<Style><LineStyle><color>ff0000ff</color></LineStyle><PolyStyle><fill>0</fill></PolyStyle></Style>
	<ExtendedData><SchemaData schemaUrl="#damage_swesph_railways">
		<SimpleData name="osm_id">245598684</SimpleData>
		<SimpleData name="type">rail</SimpleData>
		<SimpleData name="depth_cls">&gt;1.5 m</SimpleData>
		<SimpleData name="max_depth">2.22</SimpleData>
		<SimpleData name="length_m">419.6</SimpleData>
	</SchemaData></ExtendedData>
      <LineString><coordinates>79.1052424915154,14.2671740497777 79.1053040105667,14.2670037529592 79.1053655295108,14.266833456111 79.1054270483479,14.2666631592332 79.1054885670779,14.2664928623257 79.105549937992,14.2663225161922 79.1056080730954,14.2661510923336 79.1056662080958,14.2659796684477 79.1057297900569,14.2658100974365 79.1057935752295,14.265640595557 79.1058573602924,14.2654710936463 79.1059211452456,14.2653015917045 79.1059909878744,14.2651344074913 79.1060623892798,14.264967819688 79.1061352556114,14.2648018402646 79.1062089068269,14.2646361868066 79.1062825579218,14.2644705333104 79.1063562088963,14.2643048797759 79.1064298597503,14.2641392262031 79.1065035104839,14.2639735725921 79.106577161097,14.2638079189428 79.1066514113124,14.2636425234078</coordinates></LineString>
  </Placemark>
  <Placemark id="damage_swesph_railways.95">
	<Style><LineStyle><color>ff0000ff</color></LineStyle><PolyStyle><fill>0</fill></PolyStyle></Style>
	<ExtendedData><SchemaData schemaUrl="#damage_swesph_railways">
		<SimpleData name="osm_id">245598684</SimpleData>
		<SimpleData name="type">rail</SimpleData>
		<SimpleData name="depth_cls">0.5-1.5 m</SimpleData>
		<SimpleData name="max_depth">1.07</SimpleData>
		<SimpleData name="length_m">79.9</SimpleData>
	</SchemaData></ExtendedData>
      <LineString><coordinates>79.1066514113124,14.2636425234078 79.1067272579222,14.2634778150588 79.1068031044093,14.2633131066698 79.1068789507737,14.2631483982408 79.1069547970154,14.262983689772</coordinates></LineString>
  </Placemark>
  <Placemark id="damage_swesph_railways.96">
	<Style><LineStyle><color>ff0000ff</color></LineStyle><PolyStyle><fill>0</fill></PolyStyle></Style>
	<ExtendedData><SchemaData schemaUrl="#damage_swesph_railways">
		<SimpleData name="osm_id">245598684</SimpleData>
		<SimpleData name="type">rail</SimpleData>
		<SimpleData name="depth_cls">0.1-0.5 m</SimpleData>
		<SimpleData name="max_depth">0.38</SimpleData>
		<SimpleData name="length_m">119.9</SimpleData>
	</SchemaData></ExtendedData>
      <LineString><coordinates>79.1069547970154,14.262983689772 79.1070306431344,14.2628189812633 79.1071019621287,14.2626524826806 79.107165133009,14.2624827622418 79.1072283037803,14.2623130417722 79.1072914744427,14.2621433212719 79.1073542239386,14.2619734529649</coordinates></LineString>
  </Placemark>
  <Placemark id="damage_swesph_railways.97">
	<Style><LineStyle><color>ff0000ff</color></LineStyle><PolyStyle><fill>0</fill></PolyStyle></Style>
	<ExtendedData><SchemaData schemaUrl="#damage_swesph_railways">
		<SimpleData name="osm_id">245598684</SimpleData>
		<SimpleData name="type">rail</SimpleData>
		<SimpleData name="depth_cls">0.5-1.5 m</SimpleData>
		<SimpleData name="max_depth">1.34</SimpleData>
		<SimpleData name="length_m">79.9</SimpleData>
	</SchemaData></ExtendedData>
      <LineString><coordinates>79.1073542239386,14.2619734529649 79.1074164181157,14.2618033897688 79.1074786121849,14.2616333265426 79.1075408061464,14.2614632632863 79.107603,14.2612932</coordinates></LineString>
  </Placemark>
</Folder>
</Document></kml>
