{"type": "FeatureCollection", "features": [{"type": "Feature", "properties": {"level_m": 206.5, "name": "Annamayya"}, "geometry": {"type": "MultiPolygon", "coordinates": [[[[79.02722222222222, 14.172500000000001], [79.0275, 14.172500000000001], [79.0275, 14.172222222222222], [79.02805555555555, 14.172222222222222], [79.02805555555555, 14.171944444444446], [79.02833333333334, 14.171944444444446], [79.02833333333334, 14.171666666666667], [79.02916666666667, 14.171666666666667], [79.02916666666667, 14.17138888888889], [79.02777777777777, 14.17138888888889], [79.02777777777777, 14.171666666666667], [79.0275, 14.171666666666667], [79.0275, 14.171944444444446], [79.02722222222222, 14.171944444444446], [79.02722222222222, 14.172222222222222], [79.02694444444444, 14.172222222222222], [79.02694444444444, 14.172777777777778], [79.02722222222222, 14.172777777777778], [79.02722222222222, 14.172500000000001]]], [[[79.02166666666666, 14.204444444444444], [79.0213888888889, 14.204444444444444], [79.0213888888889, 14.204722222222223], [79.02111111111111, 14.204722222222223], [79.02111111111111, 14.205277777777779], [79.02083333333333, 14.205277777777779], [79.02083333333333, 14.205555555555556], [79.02055555555556, 14.205555555555556], [79.02055555555556, 14.205833333333334], [79.02027777777778, 14.205833333333334], [79.02027777777778, 14.206666666666667], [79.02, 14.206666666666667], [79.02, 14.206944444444444], [79.01972222222223, 14.206944444444444], [79.01972222222223, 14.2075], [79.01944444444445, 14.2075], [79.01944444444445, 14.208055555555555], [79.01916666666666, 14.208055555555555], [79.01916666666666, 14.20861111111111], [79.01888888888888, 14.20861111111111], [79.01888888888888, 14.209166666666667], [79.01916666666666, 14.209166666666667], [79.01916666666666, 14.209444444444445], [79.01972222222223, 14.209444444444445], [79.01972222222223, 14.209722222222222], [79.02, 14.209722222222222], [79.02, 14.21], [79.02027777777778, 14.21], [79.02027777777778, 14.210277777777778], [79.02055555555556, 14.210277777777778], [79.02055555555556, 14.210555555555556], [79.02083333333333, 14.210555555555556], [79.02083333333333, 14.210833333333333], [79.02111111111111, 14.210833333333333], [79.02111111111111, 14.211388888888889], [79.0213888888889, 14.211388888888889], [79.0213888888889, 14.212222222222223], [79.02166666666666, 14.212222222222223], [79.02166666666666, 14.214722222222223], [79.0213888888889, 14.214722222222223], [79.0213888888889, 14.215277777777779], [79.02166666666666, 14.215277777777779], [79.02166666666666, 14.215], [79.02194444444444, 14.215], [79.02194444444444, 14.214722222222223], [79.02222222222223, 14.214722222222223], [79.02222222222223, 14.214444444444444], [79.0225, 14.214444444444444], [79.0225, 14.214722222222223], [79.02305555555556, 14.214722222222223], [79.02305555555556, 14.215277777777779], [79.02333333333333, 14.215277777777779], [79.02333333333333, 14.215], [79.02388888888889, 14.215], [79.02388888888889, 14.214722222222223], [79.02416666666666, 14.214722222222223], [79.02416666666666, 14.214444444444444], [79.02444444444444, 14.214444444444444], [79.02444444444444, 14.213888888888889], [79.02555555555556, 14.213888888888889], [79.02555555555556, 14.213611111111112], [79.02722222222222, 14.213611111111112], [79.02722222222222, 14.213333333333333], [79.02805555555555, 14.213333333333333], [79.02805555555555, 14.213055555555556], [79.0286111111111, 14.213055555555556], [79.0286111111111, 14.213888888888889], [79.02888888888889, 14.213888888888889], [79.02888888888889, 14.214166666666667], [79.02916666666667, 14.214166666666667], [79.02916666666667, 14.213888888888889], [79.02972222222222, 14.213888888888889], [79.02972222222222, 14.213611111111112], [79.03027777777778, 14.213611111111112], [79.03027777777778, 14.213888888888889], [79.03111111111112, 14.213888888888889], [79.03111111111112, 14.213611111111112], [79.03166666666667, 14.213611111111112], [79.03166666666667, 14.213888888888889], [79.03222222222222, 14.213888888888889], [79.03222222222222, 14.214166666666667], [79.0325, 14.214166666666667], [79.0325, 14.215277777777779], [79.03305555555555, 14.215277777777779], [79.03305555555555, 14.215833333333334], [79.03361111111111, 14.215833333333334], [79.03361111111111, 14.216111111111111], [79.03416666666666, 14.216111111111111], [79.03416666666666, 14.216666666666667], [79.03444444444445, 14.216666666666667], [79.03444444444445, 14.218055555555557], [79.03472222222221, 14.218055555555557], [79.03472222222221, 14.217777777777778], [79.035, 14.217777777777778], [79.035, 14.217500000000001], [79.03527777777778, 14.217500000000001], [79.03527777777778, 14.217222222222222], [79.03555555555556, 14.217222222222222], [79.03555555555556, 14.216944444444445], [79.03611111111111, 14.216944444444445], [79.03611111111111, 14.216666666666667], [79.03694444444444, 14.216666666666667], [79.03694444444444, 14.216944444444445], [79.03722222222223, 14.216944444444445], [79.03722222222223, 14.217222222222222], [79.0375, 14.217222222222222], [79.0375, 14.216666666666667], [79.03722222222223, 14.216666666666667], [79.03722222222223, 14.216111111111111], [79.03694444444444, 14.216111111111111], [79.03694444444444, 14.215277777777779], [79.03722222222223, 14.215277777777779], [79.03722222222223, 14.215], [79.0375, 14.215], [79.0375, 14.214722222222223], [79.03805555555556, 14.214722222222223], [79.03805555555556, 14.214444444444444], [79.03888888888889, 14.214444444444444], [79.03888888888889, 14.213611111111112], [79.03916666666666, 14.213611111111112], [79.03916666666666, 14.213333333333333], [79.03944444444444, 14.213333333333333], [79.03944444444444, 14.212777777777777], [79.03916666666666, 14.212777777777777], [79.03916666666666, 14.2125], [79.03888888888889, 14.2125], [79.03888888888889, 14.211944444444445], [79.03861111111111, 14.211944444444445], [79.03861111111111, 14.211666666666668], [79.0375, 14.211666666666668], [79.0375, 14.211388888888889], [79.03722222222223, 14.211388888888889], [79.03722222222223, 14.211111111111112], [79.03694444444444, 14.211111111111112], [79.03694444444444, 14.211388888888889], [79.03583333333333, 14.211388888888889], [79.03583333333333, 14.211111111111112], [79.03555555555556, 14.211111111111112], [79.03555555555556, 14.210833333333333], [79.03527777777778, 14.210833333333333], [79.03527777777778, 14.211666666666668], [79.03555555555556, 14.211666666666668], [79.03555555555556, 14.2125], [79.03527777777778, 14.2125], [79.03527777777778, 14.212777777777777], [79.035, 14.212777777777777], [79.035, 14.213055555555556], [79.03444444444445, 14.213055555555556], [79.03444444444445, 14.212777777777777], [79.03305555555555, 14.212777777777777], [79.03305555555555, 14.2125], [79.03277777777778, 14.2125], [79.03277777777778, 14.212222222222223], [79.0325, 14.212222222222223], [79.0325, 14.211944444444445], [79.03194444444445, 14.211944444444445], [79.03194444444445, 14.211666666666668], [79.03166666666667, 14.211666666666668], [79.03166666666667, 14.211388888888889], [79.03138888888888, 14.211388888888889], [79.03138888888888, 14.211111111111112], [79.03111111111112, 14.211111111111112], [79.03111111111112, 14.210555555555556], [79.03138888888888, 14.210555555555556], [79.03138888888888, 14.21], [79.03194444444445, 14.21], [79.03194444444445, 14.209722222222222], [79.03222222222222, 14.209722222222222], [79.03222222222222, 14.209444444444445], [79.0325, 14.209444444444445], [79.0325, 14.208055555555555], [79.03277777777778, 14.208055555555555], [79.03277777777778, 14.207222222222223], [79.03305555555555, 14.207222222222223], [79.03305555555555, 14.206666666666667], [79.03333333333333, 14.206666666666667], [79.03333333333333, 14.206111111111111], [79.03361111111111, 14.206111111111111], [79.03361111111111, 14.203888888888889], [79.03333333333333, 14.203888888888889], [79.03333333333333, 14.203333333333333], [79.03305555555555, 14.203333333333333], [79.03305555555555, 14.200833333333334], [79.03333333333333, 14.200833333333334], [79.03333333333333, 14.200000000000001], [79.03361111111111, 14.200000000000001], [79.03361111111111, 14.199722222222222], [79.03388888888888, 14.199722222222222], [79.03388888888888, 14.199444444444445], [79.03361111111111, 14.199444444444445], [79.03361111111111, 14.198333333333334], [79.03388888888888, 14.198333333333334], [79.03388888888888, 14.197222222222223], [79.03361111111111, 14.197222222222223], [79.03361111111111, 14.1975], [79.03333333333333, 14.1975], [79.03333333333333, 14.196944444444444], [79.03305555555555, 14.196944444444444], [79.03305555555555, 14.196388888888889], [79.03277777777778, 14.196388888888889], [79.03277777777778, 14.196111111111112], [79.0325, 14.196111111111112], [79.0325, 14.195833333333333], [79.03222222222222, 14.195833333333333], [79.03222222222222, 14.195555555555556], [79.03194444444445, 14.195555555555556], [79.03194444444445, 14.195], [79.03166666666667, 14.195], [79.03166666666667, 14.194722222222223], [79.03138888888888, 14.194722222222223], [79.03138888888888, 14.193888888888889], [79.03111111111112, 14.193888888888889], [79.03111111111112, 14.191944444444445], [79.03138888888888, 14.191944444444445], [79.03138888888888, 14.190833333333334], [79.03166666666667, 14.190833333333334], [79.03166666666667, 14.19], [79.03194444444445, 14.19], [79.03194444444445, 14.189722222222223], [79.03222222222222, 14.189722222222223], [79.03222222222222, 14.189444444444446], [79.03333333333333, 14.189444444444446], [79.03333333333333, 14.18888888888889], [79.03361111111111, 14.18888888888889], [79.03361111111111, 14.188611111111111], [79.03333333333333, 14.188611111111111], [79.03333333333333, 14.188333333333334], [79.03361111111111, 14.188333333333334], [79.03361111111111, 14.187777777777779], [79.03305555555555, 14.187777777777779], [79.03305555555555, 14.1875], [79.03277777777778, 14.1875], [79.03277777777778, 14.187222222222223], [79.03222222222222, 14.187222222222223], [79.03222222222222, 14.1875], [79.03166666666667, 14.1875], [79.03166666666667, 14.187222222222223], [79.03138888888888, 14.187222222222223], [79.03138888888888, 14.186944444444444], [79.03083333333333, 14.186944444444444], [79.03083333333333, 14.186666666666667], [79.03027777777778, 14.186666666666667], [79.03027777777778, 14.186111111111112], [79.03, 14.186111111111112], [79.03, 14.185277777777777], [79.02972222222222, 14.185277777777777], [79.02972222222222, 14.185], [79.02944444444444, 14.185], [79.02944444444444, 14.185277777777777], [79.02916666666667, 14.185277777777777], [79.02916666666667, 14.185555555555556], [79.02833333333334, 14.185555555555556], [79.02833333333334, 14.184166666666666], [79.0286111111111, 14.184166666666666], [79.0286111111111, 14.18388888888889], [79.02888888888889, 14.18388888888889], [79.02888888888889, 14.183333333333334], [79.02916666666667, 14.183333333333334], [79.02916666666667, 14.182777777777778], [79.03055555555555, 14.182777777777778], [79.03055555555555, 14.183055555555557], [79.03083333333333, 14.183055555555557], [79.03083333333333, 14.182777777777778], [79.03111111111112, 14.182777777777778], [79.03111111111112, 14.182500000000001], [79.03138888888888, 14.182500000000001], [79.03138888888888, 14.181944444444445], [79.03111111111112, 14.181944444444445], [79.03111111111112, 14.181666666666667], [79.02972222222222, 14.181666666666667], [79.02972222222222, 14.18138888888889], [79.02944444444444, 14.18138888888889], [79.02944444444444, 14.181111111111111], [79.02972222222222, 14.181111111111111], [79.02972222222222, 14.180555555555555], [79.03, 14.180555555555555], [79.03, 14.18], [79.03027777777778, 14.18], [79.03027777777778, 14.179444444444444], [79.03055555555555, 14.179444444444444], [79.03055555555555, 14.179166666666667], [79.03083333333333, 14.179166666666667], [79.03083333333333, 14.177777777777779], [79.03138888888888, 14.177777777777779], [79.03138888888888, 14.1775], [79.03111111111112, 14.1775], [79.03111111111112, 14.176944444444445], [79.03138888888888, 14.176944444444445], [79.03138888888888, 14.176111111111112], [79.03166666666667, 14.176111111111112], [79.03166666666667, 14.175], [79.03138888888888, 14.175], [79.03138888888888, 14.17388888888889], [79.03166666666667, 14.17388888888889], [79.03166666666667, 14.173055555555555], [79.03222222222222, 14.173055555555555], [79.03222222222222, 14.172777777777778], [79.0325, 14.172777777777778], [79.0325, 14.172500000000001], [79.03305555555555, 14.172500000000001], [79.03305555555555, 14.171944444444446], [79.03333333333333, 14.171944444444446], [79.03333333333333, 14.171666666666667], [79.03277777777778, 14.171666666666667], [79.03277777777778, 14.171944444444446], [79.0325, 14.171944444444446], [79.0325, 14.172222222222222], [79.03222222222222, 14.172222222222222], [79.03222222222222, 14.172500000000001], [79.03166666666667, 14.172500000000001], [79.03166666666667, 14.172777777777778], [79.03138888888888, 14.172777777777778], [79.03138888888888, 14.17361111111111], [79.03111111111112, 14.17361111111111], [79.03111111111112, 14.17388888888889], [79.03083333333333, 14.17388888888889], [79.03083333333333, 14.174166666666666], [79.03055555555555, 14.174166666666666], [79.03055555555555, 14.175], [79.03027777777778, 14.175], [79.03027777777778, 14.175555555555556], [79.03, 14.175555555555556], [79.03, 14.175833333333333], [79.02972222222222, 14.175833333333333], [79.02972222222222, 14.176111111111112], [79.02944444444444, 14.176111111111112], [79.02944444444444, 14.176388888888889], [79.02916666666667, 14.176388888888889], [79.02916666666667, 14.176666666666668], [79.0286111111111, 14.176666666666668], [79.0286111111111, 14.176388888888889], [79.02833333333334, 14.176388888888889], [79.02833333333334, 14.176111111111112], [79.02805555555555, 14.176111111111112], [79.02805555555555, 14.175277777777778], [79.02777777777777, 14.175277777777778], [79.02777777777777, 14.175], [79.0275, 14.175], [79.0275, 14.174722222222222], [79.02722222222222, 14.174722222222222], [79.02722222222222, 14.174166666666666], [79.02694444444444, 14.174166666666666], [79.02694444444444, 14.172777777777778], [79.02666666666667, 14.172777777777778], [79.02666666666667, 14.173333333333334], [79.02638888888889, 14.173333333333334], [79.02638888888889, 14.174444444444445], [79.02666666666667, 14.174444444444445], [79.02666666666667, 14.175555555555556], [79.02638888888889, 14.175555555555556], [79.02638888888889, 14.176111111111112], [79.02694444444444, 14.176111111111112], [79.02694444444444, 14.176388888888889], [79.02722222222222, 14.176388888888889], [79.02722222222222, 14.176666666666668], [79.0275, 14.176666666666668], [79.0275, 14.177222222222223], [79.02777777777777, 14.177222222222223], [79.02777777777777, 14.177777777777779], [79.02805555555555, 14.177777777777779], [79.02805555555555, 14.178333333333335], [79.02833333333334, 14.178333333333335], [79.02833333333334, 14.178888888888888], [79.02916666666667, 14.178888888888888], [79.02916666666667, 14.179166666666667], [79.02888888888889, 14.179166666666667], [79.02888888888889, 14.18], [79.02916666666667, 14.18], [79.02916666666667, 14.180277777777778], [79.02888888888889, 14.180277777777778], [79.02888888888889, 14.180555555555555], [79.0286111111111, 14.180555555555555], [79.0286111111111, 14.180833333333334], [79.02833333333334, 14.180833333333334], [79.02833333333334, 14.181111111111111], [79.02805555555555, 14.181111111111111], [79.02805555555555, 14.18138888888889], [79.02777777777777, 14.18138888888889], [79.02777777777777, 14.181111111111111], [79.02694444444444, 14.181111111111111], [79.02694444444444, 14.18138888888889], [79.02722222222222, 14.18138888888889], [79.02722222222222, 14.181666666666667], [79.0275, 14.181666666666667], [79.0275, 14.182222222222222], [79.02722222222222, 14.182222222222222], [79.02722222222222, 14.182777777777778], [79.02694444444444, 14.182777777777778], [79.02694444444444, 14.183055555555557], [79.02666666666667, 14.183055555555557], [79.02666666666667, 14.183333333333334], [79.02638888888889, 14.183333333333334], [79.02638888888889, 14.183611111111112], [79.02555555555556, 14.183611111111112], [79.02555555555556, 14.18388888888889], [79.02527777777777, 14.18388888888889], [79.02527777777777, 14.184166666666666], [79.025, 14.184166666666666], [79.025, 14.185], [79.02472222222222, 14.185], [79.02472222222222, 14.185555555555556], [79.02444444444444, 14.185555555555556], [79.02444444444444, 14.185833333333333], [79.02416666666666, 14.185833333333333], [79.02416666666666, 14.185555555555556], [79.02388888888889, 14.185555555555556], [79.02388888888889, 14.185277777777777], [79.02361111111111, 14.185277777777777], [79.02361111111111, 14.184722222222222], [79.02333333333333, 14.184722222222222], [79.02333333333333, 14.184444444444445], [79.02305555555556, 14.184444444444445], [79.02305555555556, 14.184166666666666], [79.02333333333333, 14.184166666666666], [79.02333333333333, 14.183611111111112], [79.02277777777778, 14.183611111111112], [79.02277777777778, 14.183333333333334], [79.02222222222223, 14.183333333333334], [79.02222222222223, 14.183055555555557], [79.02166666666666, 14.183055555555557], [79.02166666666666, 14.182777777777778], [79.0213888888889, 14.182777777777778], [79.0213888888889, 14.182500000000001], [79.02111111111111, 14.182500000000001], [79.02111111111111, 14.182222222222222], [79.02083333333333, 14.182222222222222], [79.02083333333333, 14.181666666666667], [79.02, 14.181666666666667], [79.02, 14.181111111111111], [79.01972222222223, 14.181111111111111], [79.01972222222223, 14.18], [79.01944444444445, 14.18], [79.01944444444445, 14.179444444444444], [79.01916666666666, 14.179444444444444], [79.01916666666666, 14.176111111111112], [79.01944444444445, 14.176111111111112], [79.01944444444445, 14.175277777777778], [79.01972222222223, 14.175277777777778], [79.01972222222223, 14.174722222222222], [79.02, 14.174722222222222], [79.02, 14.174444444444445], [79.02027777777778, 14.174444444444445], [79.02027777777778, 14.174166666666666], [79.02083333333333, 14.174166666666666], [79.02083333333333, 14.17388888888889], [79.02111111111111, 14.17388888888889], [79.02111111111111, 14.17361111111111], [79.0213888888889, 14.17361111111111], [79.0213888888889, 14.173055555555555], [79.02166666666666, 14.173055555555555], [79.02166666666666, 14.172777777777778], [79.02194444444444, 14.172777777777778], [79.02194444444444, 14.172500000000001], [79.02222222222223, 14.172500000000001], [79.02222222222223, 14.172222222222222], [79.0225, 14.172222222222222], [79.0225, 14.171944444444446], [79.02277777777778, 14.171944444444446], [79.02277777777778, 14.17138888888889], [79.02305555555556, 14.17138888888889], [79.02305555555556, 14.170833333333334], [79.02333333333333, 14.170833333333334], [79.02333333333333, 14.170277777777779], [79.02361111111111, 14.170277777777779], [79.02361111111111, 14.169722222222223], [79.02388888888889, 14.169722222222223], [79.02388888888889, 14.169444444444444], [79.02416666666666, 14.169444444444444], [79.02416666666666, 14.167777777777777], [79.02388888888889, 14.167777777777777], [79.02388888888889, 14.166666666666668], [79.02416666666666, 14.166666666666668], [79.02416666666666, 14.16638888888889], [79.02472222222222, 14.16638888888889], [79.02472222222222, 14.166111111111112], [79.02527777777777, 14.166111111111112], [79.02527777777777, 14.165833333333333], [79.025, 14.165833333333333], [79.025, 14.165277777777778], [79.02472222222222, 14.165277777777778], [79.02472222222222, 14.165555555555557], [79.02444444444444, 14.165555555555557], [79.02444444444444, 14.165833333333333], [79.02388888888889, 14.165833333333333], [79.02388888888889, 14.165555555555557], [79.02361111111111, 14.165555555555557], [79.02361111111111, 14.165277777777778], [79.02333333333333, 14.165277777777778], [79.02333333333333, 14.165000000000001], [79.02305555555556, 14.165000000000001], [79.02305555555556, 14.164444444444445], [79.0225, 14.164444444444445], [79.0225, 14.164166666666667], [79.02222222222223, 14.164166666666667], [79.02222222222223, 14.16388888888889], [79.02166666666666, 14.16388888888889], [79.02166666666666, 14.163333333333334], [79.0213888888889, 14.163333333333334], [79.0213888888889, 14.162777777777778], [79.02166666666666, 14.162777777777778], [79.02166666666666, 14.1625], [79.02194444444444, 14.1625], [79.02194444444444, 14.162222222222223], [79.02222222222223, 14.162222222222223], [79.02222222222223, 14.161388888888888], [79.02194444444444, 14.161388888888888], [79.02194444444444, 14.161944444444444], [79.02166666666666, 14.161944444444444], [79.02166666666666, 14.162222222222223], [79.02083333333333, 14.162222222222223], [79.02083333333333, 14.161944444444444], [79.02055555555556, 14.161944444444444], [79.02055555555556, 14.161666666666667], [79.02027777777778, 14.161666666666667], [79.02027777777778, 14.1625], [79.01916666666666, 14.1625], [79.01916666666666, 14.162222222222223], [79.01861111111111, 14.162222222222223], [79.01861111111111, 14.161944444444444], [79.01833333333333, 14.161944444444444], [79.01833333333333, 14.161666666666667], [79.01805555555555, 14.161666666666667], [79.01805555555555, 14.161388888888888], [79.01777777777778, 14.161388888888888], [79.01777777777778, 14.161111111111111], [79.0175, 14.161111111111111], [79.0175, 14.161388888888888], [79.01694444444445, 14.161388888888888], [79.01694444444445, 14.161111111111111], [79.01583333333333, 14.161111111111111], [79.01583333333333, 14.160833333333334], [79.01527777777778, 14.160833333333334], [79.01527777777778, 14.160555555555556], [79.015, 14.160555555555556], [79.015, 14.160277777777779], [79.01472222222222, 14.160277777777779], [79.01472222222222, 14.159722222222223], [79.015, 14.159722222222223], [79.015, 14.159444444444444], [79.01527777777778, 14.159444444444444], [79.01527777777778, 14.158611111111112], [79.015, 14.158611111111112], [79.015, 14.158888888888889], [79.01472222222222, 14.158888888888889], [79.01472222222222, 14.159166666666668], [79.01444444444445, 14.159166666666668], [79.01444444444445, 14.159444444444444], [79.01388888888889, 14.159444444444444], [79.01388888888889, 14.159166666666668], [79.0136111111111, 14.159166666666668], [79.0136111111111, 14.158611111111112], [79.01333333333334, 14.158611111111112], [79.01333333333334, 14.158055555555556], [79.01305555555555, 14.158055555555556], [79.01305555555555, 14.157777777777778], [79.01277777777777, 14.157777777777778], [79.01277777777777, 14.158888888888889], [79.01305555555555, 14.158888888888889], [79.01305555555555, 14.16], [79.01138888888889, 14.16], [79.01138888888889, 14.160277777777779], [79.01055555555556, 14.160277777777779], [79.01055555555556, 14.16], [79.01027777777777, 14.16], [79.01027777777777, 14.160833333333334], [79.01, 14.160833333333334], [79.01, 14.161388888888888], [79.00944444444444, 14.161388888888888], [79.00944444444444, 14.161666666666667], [79.00916666666667, 14.161666666666667], [79.00916666666667, 14.161944444444444], [79.00888888888889, 14.161944444444444], [79.00888888888889, 14.162222222222223], [79.00861111111111, 14.162222222222223], [79.00861111111111, 14.1625], [79.00833333333333, 14.1625], [79.00833333333333, 14.162777777777778], [79.00805555555556, 14.162777777777778], [79.00805555555556, 14.163055555555555], [79.00777777777778, 14.163055555555555], [79.00777777777778, 14.163333333333334], [79.0075, 14.163333333333334], [79.0075, 14.163055555555555], [79.00694444444444, 14.163055555555555], [79.00694444444444, 14.162777777777778], [79.00666666666666, 14.162777777777778], [79.00666666666666, 14.161944444444444], [79.00638888888889, 14.161944444444444], [79.00638888888889, 14.161111111111111], [79.00611111111111, 14.161111111111111], [79.00611111111111, 14.160277777777779], [79.00638888888889, 14.160277777777779], [79.00638888888889, 14.159166666666668], [79.00666666666666, 14.159166666666668], [79.00666666666666, 14.158611111111112], [79.00694444444444, 14.158611111111112], [79.00694444444444, 14.158333333333333], [79.00722222222223, 14.158333333333333], [79.00722222222223, 14.157777777777778], [79.0075, 14.157777777777778], [79.0075, 14.157222222222222], [79.00777777777778, 14.157222222222222], [79.00777777777778, 14.156944444444445], [79.00805555555556, 14.156944444444445], [79.00805555555556, 14.15638888888889], [79.00833333333333, 14.15638888888889], [79.00833333333333, 14.15611111111111], [79.00916666666667, 14.15611111111111], [79.00916666666667, 14.155833333333334], [79.00972222222222, 14.155833333333334], [79.00972222222222, 14.155555555555557], [79.00944444444444, 14.155555555555557], [79.00944444444444, 14.155277777777778], [79.00972222222222, 14.155277777777778], [79.00972222222222, 14.155000000000001], [79.01, 14.155000000000001], [79.01, 14.154444444444445], [79.01055555555556, 14.154444444444445], [79.01055555555556, 14.154166666666667], [79.01083333333334, 14.154166666666667], [79.01083333333334, 14.153611111111111], [79.01138888888889, 14.153611111111111], [79.01138888888889, 14.153055555555556], [79.01194444444444, 14.153055555555556], [79.01194444444444, 14.152777777777779], [79.01222222222222, 14.152777777777779], [79.01222222222222, 14.1525], [79.0125, 14.1525], [79.0125, 14.152222222222223], [79.01305555555555, 14.152222222222223], [79.01305555555555, 14.151944444444444], [79.01333333333334, 14.151944444444444], [79.01333333333334, 14.151388888888889], [79.0136111111111, 14.151388888888889], [79.0136111111111, 14.151111111111112], [79.01388888888889, 14.151111111111112], [79.01388888888889, 14.150833333333333], [79.01444444444445, 14.150833333333333], [79.01444444444445, 14.150555555555556], [79.01472222222222, 14.150555555555556], [79.01472222222222, 14.150277777777777], [79.015, 14.150277777777777], [79.015, 14.15], [79.01527777777778, 14.15], [79.01527777777778, 14.149722222222223], [79.01583333333333, 14.149722222222223], [79.01583333333333, 14.149444444444445], [79.01611111111112, 14.149444444444445], [79.01611111111112, 14.148888888888889], [79.01666666666667, 14.148888888888889], [79.01666666666667, 14.148611111111112], [79.01694444444445, 14.148611111111112], [79.01694444444445, 14.148055555555556], [79.0175, 14.148055555555556], [79.0175, 14.147777777777778], [79.01777777777778, 14.147777777777778], [79.01777777777778, 14.1475], [79.01805555555555, 14.1475], [79.01805555555555, 14.146944444444445], [79.01833333333333, 14.146944444444445], [79.01833333333333, 14.14611111111111], [79.01861111111111, 14.14611111111111], [79.01861111111111, 14.145], [79.01805555555555, 14.145], [79.01805555555555, 14.144722222222223], [79.01888888888888, 14.144722222222223], [79.01888888888888, 14.144444444444444], [79.01861111111111, 14.144444444444444], [79.01861111111111, 14.143055555555556], [79.01888888888888, 14.143055555555556], [79.01888888888888, 14.142777777777779], [79.01861111111111, 14.142777777777779], [79.01861111111111, 14.1425], [79.01833333333333, 14.1425], [79.01833333333333, 14.143055555555556], [79.01805555555555, 14.143055555555556], [79.01805555555555, 14.141666666666667], [79.01722222222222, 14.141666666666667], [79.01722222222222, 14.141944444444444], [79.01666666666667, 14.141944444444444], [79.01666666666667, 14.141666666666667], [79.01638888888888, 14.141666666666667], [79.01638888888888, 14.1425], [79.01611111111112, 14.1425], [79.01611111111112, 14.142777777777779], [79.01638888888888, 14.142777777777779], [79.01638888888888, 14.143055555555556], [79.01611111111112, 14.143055555555556], [79.01611111111112, 14.145277777777778], [79.01583333333333, 14.145277777777778], [79.01583333333333, 14.14638888888889], [79.01555555555555, 14.14638888888889], [79.01555555555555, 14.146666666666667], [79.01527777777778, 14.146666666666667], [79.01527777777778, 14.147222222222222], [79.015, 14.147222222222222], [79.015, 14.1475], [79.01472222222222, 14.1475], [79.01472222222222, 14.148055555555556], [79.01444444444445, 14.148055555555556], [79.01444444444445, 14.148333333333333], [79.01388888888889, 14.148333333333333], [79.01388888888889, 14.148611111111112], [79.01333333333334, 14.148611111111112], [79.01333333333334, 14.148888888888889], [79.01277777777777, 14.148888888888889], [79.01277777777777, 14.149166666666668], [79.0125, 14.149166666666668], [79.0125, 14.149444444444445], [79.01222222222222, 14.149444444444445], [79.01222222222222, 14.149722222222223], [79.01166666666667, 14.149722222222223], [79.01166666666667, 14.15], [79.01138888888889, 14.15], [79.01138888888889, 14.150277777777777], [79.0111111111111, 14.150277777777777], [79.0111111111111, 14.150555555555556], [79.01083333333334, 14.150555555555556], [79.01083333333334, 14.149722222222223], [79.01, 14.149722222222223], [79.01, 14.148888888888889], [79.00972222222222, 14.148888888888889], [79.00972222222222, 14.148611111111112], [79.00944444444444, 14.148611111111112], [79.00944444444444, 14.148888888888889], [79.00916666666667, 14.148888888888889], [79.00916666666667, 14.15], [79.00888888888889, 14.15], [79.00888888888889, 14.150555555555556], [79.00861111111111, 14.150555555555556], [79.00861111111111, 14.151111111111112], [79.0075, 14.151111111111112], [79.0075, 14.151666666666667], [79.00722222222223, 14.151666666666667], [79.00722222222223, 14.152222222222223], [79.00694444444444, 14.152222222222223], [79.00694444444444, 14.153055555555556], [79.00666666666666, 14.153055555555556], [79.00666666666666, 14.153611111111111], [79.00638888888889, 14.153611111111111], [79.00638888888889, 14.154166666666667], [79.00611111111111, 14.154166666666667], [79.00611111111111, 14.154722222222222], [79.00583333333333, 14.154722222222222], [79.00583333333333, 14.155277777777778], [79.00555555555556, 14.155277777777778], [79.00555555555556, 14.155555555555557], [79.00527777777778, 14.155555555555557], [79.00527777777778, 14.15611111111111], [79.005, 14.15611111111111], [79.005, 14.15638888888889], [79.00444444444445, 14.15638888888889], [79.00444444444445, 14.15611111111111], [79.00416666666666, 14.15611111111111], [79.00416666666666, 14.16], [79.0038888888889, 14.16], [79.0038888888889, 14.160555555555556], [79.00277777777778, 14.160555555555556], [79.00277777777778, 14.161111111111111], [79.00305555555555, 14.161111111111111], [79.00305555555555, 14.161388888888888], [79.00333333333333, 14.161388888888888], [79.00333333333333, 14.161666666666667], [79.00361111111111, 14.161666666666667], [79.00361111111111, 14.164444444444445], [79.00333333333333, 14.164444444444445], [79.00333333333333, 14.164722222222222], [79.00166666666667, 14.164722222222222], [79.00166666666667, 14.165000000000001], [79.00222222222222, 14.165000000000001], [79.00222222222222, 14.165277777777778], [79.0025, 14.165277777777778], [79.0025, 14.165555555555557], [79.00277777777778, 14.165555555555557], [79.00277777777778, 14.165833333333333], [79.00305555555555, 14.165833333333333], [79.00305555555555, 14.166111111111112], [79.00361111111111, 14.166111111111112], [79.00361111111111, 14.16638888888889], [79.0038888888889, 14.16638888888889], [79.0038888888889, 14.166666666666668], [79.00416666666666, 14.166666666666668], [79.00416666666666, 14.166944444444445], [79.0038888888889, 14.166944444444445], [79.0038888888889, 14.167222222222222], [79.00361111111111, 14.167222222222222], [79.00361111111111, 14.167777777777777], [79.00472222222223, 14.167777777777777], [79.00472222222223, 14.1675], [79.005, 14.1675], [79.005, 14.167777777777777], [79.00527777777778, 14.167777777777777], [79.00527777777778, 14.168055555555556], [79.00583333333333, 14.168055555555556], [79.00583333333333, 14.168333333333333], [79.00611111111111, 14.168333333333333], [79.00611111111111, 14.168888888888889], [79.00583333333333, 14.168888888888889], [79.00583333333333, 14.169166666666667], [79.00527777777778, 14.169166666666667], [79.00527777777778, 14.169444444444444], [79.00305555555555, 14.169444444444444], [79.00305555555555, 14.169166666666667], [79.00055555555555, 14.169166666666667], [79.00055555555555, 14.168888888888889], [79.00027777777778, 14.168888888888889], [79.00027777777778, 14.168611111111112], [78.99972222222222, 14.168611111111112], [78.99972222222222, 14.168888888888889], [78.99388888888889, 14.168888888888889], [78.99388888888889, 14.168611111111112], [78.99305555555556, 14.168611111111112], [78.99305555555556, 14.168888888888889], [78.99249999999999, 14.168888888888889], [78.99249999999999, 14.169166666666667], [78.99194444444444, 14.169166666666667], [78.99194444444444, 14.169722222222223], [78.99166666666666, 14.169722222222223], [78.99166666666666, 14.17], [78.99138888888889, 14.17], [78.99138888888889, 14.170833333333334], [78.99111111111111, 14.170833333333334], [78.99111111111111, 14.17388888888889], [78.99138888888889, 14.17388888888889], [78.99138888888889, 14.174444444444445], [78.99166666666666, 14.174444444444445], [78.99166666666666, 14.175277777777778], [78.99194444444444, 14.175277777777778], [78.99194444444444, 14.175555555555556], [78.99222222222222, 14.175555555555556], [78.99222222222222, 14.176111111111112], [78.99249999999999, 14.176111111111112], [78.99249999999999, 14.176388888888889], [78.99277777777777, 14.176388888888889], [78.99277777777777, 14.177222222222223], [78.99305555555556, 14.177222222222223], [78.99305555555556, 14.178055555555556], [78.99333333333333, 14.178055555555556], [78.99333333333333, 14.178333333333335], [78.99361111111111, 14.178333333333335], [78.99361111111111, 14.178611111111111], [78.99388888888889, 14.178611111111111], [78.99388888888889, 14.178055555555556], [78.99361111111111, 14.178055555555556], [78.99361111111111, 14.1775], [78.99333333333333, 14.1775], [78.99333333333333, 14.177222222222223], [78.99388888888889, 14.177222222222223], [78.99388888888889, 14.176944444444445], [78.99361111111111, 14.176944444444445], [78.99361111111111, 14.176666666666668], [78.99333333333333, 14.176666666666668], [78.99333333333333, 14.175833333333333], [78.99305555555556, 14.175833333333333], [78.99305555555556, 14.175277777777778], [78.99277777777777, 14.175277777777778], [78.99277777777777, 14.174722222222222], [78.99249999999999, 14.174722222222222], [78.99249999999999, 14.17388888888889], [78.99222222222222, 14.17388888888889], [78.99222222222222, 14.172500000000001], [78.99194444444444, 14.172500000000001], [78.99194444444444, 14.172222222222222], [78.99222222222222, 14.172222222222222], [78.99222222222222, 14.171666666666667], [78.99249999999999, 14.171666666666667], [78.99249999999999, 14.173333333333334], [78.99277777777777, 14.173333333333334], [78.99277777777777, 14.17138888888889], [78.99305555555556, 14.17138888888889], [78.99305555555556, 14.170555555555556], [78.99333333333333, 14.170555555555556], [78.99333333333333, 14.170277777777779], [78.99361111111111, 14.170277777777779], [78.99361111111111, 14.169722222222223], [78.99388888888889, 14.169722222222223], [78.99388888888889, 14.169444444444444], [78.99416666666667, 14.169444444444444], [78.99416666666667, 14.169722222222223], [78.995, 14.169722222222223], [78.995, 14.17], [78.99527777777777, 14.17], [78.99527777777777, 14.170277777777779], [78.99555555555555, 14.170277777777779], [78.99555555555555, 14.170555555555556], [78.9961111111111, 14.170555555555556], [78.9961111111111, 14.170833333333334], [78.99777777777777, 14.170833333333334], [78.99777777777777, 14.17138888888889], [79.00194444444445, 14.17138888888889], [79.00194444444445, 14.171666666666667], [79.00305555555555, 14.171666666666667], [79.00305555555555, 14.171944444444446], [79.00472222222223, 14.171944444444446], [79.00472222222223, 14.171666666666667], [79.00583333333333, 14.171666666666667], [79.00583333333333, 14.17138888888889], [79.00638888888889, 14.17138888888889], [79.00638888888889, 14.171111111111111], [79.00666666666666, 14.171111111111111], [79.00666666666666, 14.170833333333334], [79.00694444444444, 14.170833333333334], [79.00694444444444, 14.170277777777779], [79.00722222222223, 14.170277777777779], [79.00722222222223, 14.169722222222223], [79.0075, 14.169722222222223], [79.0075, 14.169444444444444], [79.00777777777778, 14.169444444444444], [79.00777777777778, 14.168055555555556], [79.00805555555556, 14.168055555555556], [79.00805555555556, 14.16638888888889], [79.00833333333333, 14.16638888888889], [79.00833333333333, 14.165833333333333], [79.00888888888889, 14.165833333333333], [79.00888888888889, 14.165555555555557], [79.00916666666667, 14.165555555555557], [79.00916666666667, 14.165277777777778], [79.01, 14.165277777777778], [79.01, 14.165555555555557], [79.01055555555556, 14.165555555555557], [79.01055555555556, 14.165277777777778], [79.01083333333334, 14.165277777777778], [79.01083333333334, 14.165000000000001], [79.01138888888889, 14.165000000000001], [79.01138888888889, 14.164722222222222], [79.01444444444445, 14.164722222222222], [79.01444444444445, 14.165000000000001], [79.01638888888888, 14.165000000000001], [79.01638888888888, 14.165277777777778], [79.0175, 14.165277777777778], [79.0175, 14.165555555555557], [79.01777777777778, 14.165555555555557], [79.01777777777778, 14.165277777777778], [79.01805555555555, 14.165277777777778], [79.01805555555555, 14.165555555555557], [79.01861111111111, 14.165555555555557], [79.01861111111111, 14.165833333333333], [79.01972222222223, 14.165833333333333], [79.01972222222223, 14.166111111111112], [79.01916666666666, 14.166111111111112], [79.01916666666666, 14.166666666666668], [79.01944444444445, 14.166666666666668], [79.01944444444445, 14.166944444444445], [79.01916666666666, 14.166944444444445], [79.01916666666666, 14.167222222222222], [79.01944444444445, 14.167222222222222], [79.01944444444445, 14.1675], [79.01972222222223, 14.1675], [79.01972222222223, 14.167777777777777], [79.02, 14.167777777777777], [79.02, 14.168333333333333], [79.02027777777778, 14.168333333333333], [79.02027777777778, 14.168888888888889], [79.02055555555556, 14.168888888888889], [79.02055555555556, 14.169722222222223], [79.02027777777778, 14.169722222222223], [79.02027777777778, 14.170555555555556], [79.01972222222223, 14.170555555555556], [79.01972222222223, 14.170833333333334], [79.01944444444445, 14.170833333333334], [79.01944444444445, 14.171111111111111], [79.01861111111111, 14.171111111111111], [79.01861111111111, 14.17138888888889], [79.01833333333333, 14.17138888888889], [79.01833333333333, 14.171666666666667], [79.01777777777778, 14.171666666666667], [79.01777777777778, 14.171944444444446], [79.0175, 14.171944444444446], [79.0175, 14.172777777777778], [79.01722222222222, 14.172777777777778], [79.01722222222222, 14.173055555555555], [79.01694444444445, 14.173055555555555], [79.01694444444445, 14.173333333333334], [79.01666666666667, 14.173333333333334], [79.01666666666667, 14.17361111111111], [79.01638888888888, 14.17361111111111], [79.01638888888888, 14.17388888888889], [79.01611111111112, 14.17388888888889], [79.01611111111112, 14.174166666666666], [79.01583333333333, 14.174166666666666], [79.01583333333333, 14.174722222222222], [79.01555555555555, 14.174722222222222], [79.01555555555555, 14.175], [79.015, 14.175], [79.015, 14.175277777777778], [79.01527777777778, 14.175277777777778], [79.01527777777778, 14.175833333333333], [79.015, 14.175833333333333], [79.015, 14.176111111111112], [79.01472222222222, 14.176111111111112], [79.01472222222222, 14.176666666666668], [79.01444444444445, 14.176666666666668], [79.01444444444445, 14.177222222222223], [79.01416666666667, 14.177222222222223], [79.01416666666667, 14.180833333333334], [79.01388888888889, 14.180833333333334], [79.01388888888889, 14.18138888888889], [79.0136111111111, 14.18138888888889], [79.0136111111111, 14.181666666666667], [79.01416666666667, 14.181666666666667], [79.01416666666667, 14.18138888888889], [79.01555555555555, 14.18138888888889], [79.01555555555555, 14.181666666666667], [79.01583333333333, 14.181666666666667], [79.01583333333333, 14.181944444444445], [79.01638888888888, 14.181944444444445], [79.01638888888888, 14.182222222222222], [79.01666666666667, 14.182222222222222], [79.01666666666667, 14.182500000000001], [79.0175, 14.182500000000001], [79.0175, 14.182777777777778], [79.01777777777778, 14.182777777777778], [79.01777777777778, 14.183055555555557], [79.01805555555555, 14.183055555555557], [79.01805555555555, 14.183333333333334], [79.01833333333333, 14.183333333333334], [79.01833333333333, 14.18388888888889], [79.01861111111111, 14.18388888888889], [79.01861111111111, 14.184444444444445], [79.01888888888888, 14.184444444444445], [79.01888888888888, 14.185], [79.01944444444445, 14.185], [79.01944444444445, 14.186111111111112], [79.01861111111111, 14.186111111111112], [79.01861111111111, 14.186388888888889], [79.01777777777778, 14.186388888888889], [79.01777777777778, 14.186666666666667], [79.0175, 14.186666666666667], [79.0175, 14.186944444444444], [79.01722222222222, 14.186944444444444], [79.01722222222222, 14.187222222222223], [79.01694444444445, 14.187222222222223], [79.01694444444445, 14.187777777777779], [79.01722222222222, 14.187777777777779], [79.01722222222222, 14.1875], [79.0175, 14.1875], [79.0175, 14.187222222222223], [79.01777777777778, 14.187222222222223], [79.01777777777778, 14.186944444444444], [79.01888888888888, 14.186944444444444], [79.01888888888888, 14.187222222222223], [79.01944444444445, 14.187222222222223], [79.01944444444445, 14.186944444444444], [79.02027777777778, 14.186944444444444], [79.02027777777778, 14.187222222222223], [79.02055555555556, 14.187222222222223], [79.02055555555556, 14.1875], [79.02027777777778, 14.1875], [79.02027777777778, 14.188055555555556], [79.02055555555556, 14.188055555555556], [79.02055555555556, 14.188611111111111], [79.02083333333333, 14.188611111111111], [79.02083333333333, 14.18888888888889], [79.0213888888889, 14.18888888888889], [79.0213888888889, 14.189444444444446], [79.0225, 14.189444444444446], [79.0225, 14.19], [79.02277777777778, 14.19], [79.02277777777778, 14.190277777777778], [79.02305555555556, 14.190277777777778], [79.02305555555556, 14.190555555555555], [79.02333333333333, 14.190555555555555], [79.02333333333333, 14.19138888888889], [79.02277777777778, 14.19138888888889], [79.02277777777778, 14.191666666666666], [79.02194444444444, 14.191666666666666], [79.02194444444444, 14.191944444444445], [79.02166666666666, 14.191944444444445], [79.02166666666666, 14.1925], [79.02416666666666, 14.1925], [79.02416666666666, 14.192777777777778], [79.02444444444444, 14.192777777777778], [79.02444444444444, 14.195277777777779], [79.02472222222222, 14.195277777777779], [79.02472222222222, 14.195555555555556], [79.02444444444444, 14.195555555555556], [79.02444444444444, 14.195833333333333], [79.025, 14.195833333333333], [79.025, 14.196666666666667], [79.02472222222222, 14.196666666666667], [79.02472222222222, 14.197222222222223], [79.02444444444444, 14.197222222222223], [79.02444444444444, 14.1975], [79.02416666666666, 14.1975], [79.02416666666666, 14.198055555555555], [79.02388888888889, 14.198055555555555], [79.02388888888889, 14.198611111111111], [79.02361111111111, 14.198611111111111], [79.02361111111111, 14.19888888888889], [79.02333333333333, 14.19888888888889], [79.02333333333333, 14.199722222222222], [79.02305555555556, 14.199722222222222], [79.02305555555556, 14.200277777777778], [79.02277777777778, 14.200277777777778], [79.02277777777778, 14.200555555555557], [79.0225, 14.200555555555557], [79.0225, 14.202222222222222], [79.02222222222223, 14.202222222222222], [79.02222222222223, 14.202777777777778], [79.02194444444444, 14.202777777777778], [79.02194444444444, 14.203888888888889], [79.02166666666666, 14.203888888888889], [79.02166666666666, 14.204444444444444]], [[79.01805555555555, 14.143333333333334], [79.01777777777778, 14.143333333333334], [79.01777777777778, 14.143055555555556], [79.01805555555555, 14.143055555555556], [79.01805555555555, 14.143333333333334]], [[79.02222222222223, 14.203888888888889], [79.02222222222223, 14.203611111111112], [79.0225, 14.203611111111112], [79.0225, 14.203333333333333], [79.02277777777778, 14.203333333333333], [79.02277777777778, 14.203055555555556], [79.02305555555556, 14.203055555555556], [79.02305555555556, 14.202777777777778], [79.02388888888889, 14.202777777777778], [79.02388888888889, 14.2025], [79.02444444444444, 14.2025], [79.02444444444444, 14.201944444444445], [79.02416666666666, 14.201944444444445], [79.02416666666666, 14.201111111111112], [79.02444444444444, 14.201111111111112], [79.02444444444444, 14.200555555555557], [79.02472222222222, 14.200555555555557], [79.02472222222222, 14.200277777777778], [79.025, 14.200277777777778], [79.025, 14.200000000000001], [79.02555555555556, 14.200000000000001], [79.02555555555556, 14.201111111111112], [79.02527777777777, 14.201111111111112], [79.02527777777777, 14.20138888888889], [79.025, 14.20138888888889], [79.025, 14.201944444444445], [79.02694444444444, 14.201944444444445], [79.02694444444444, 14.201666666666666], [79.02722222222222, 14.201666666666666], [79.02722222222222, 14.20138888888889], [79.02777777777777, 14.20138888888889], [79.02777777777777, 14.201666666666666], [79.02833333333334, 14.201666666666666], [79.02833333333334, 14.201944444444445], [79.02805555555555, 14.201944444444445], [79.02805555555555, 14.2025], [79.02777777777777, 14.2025], [79.02777777777777, 14.203611111111112], [79.0275, 14.203611111111112], [79.0275, 14.204166666666667], [79.02666666666667, 14.204166666666667], [79.02666666666667, 14.204444444444444], [79.02638888888889, 14.204444444444444], [79.02638888888889, 14.204722222222223], [79.02694444444444, 14.204722222222223], [79.02694444444444, 14.204444444444444], [79.0275, 14.204444444444444], [79.0275, 14.204722222222223], [79.02722222222222, 14.204722222222223], [79.02722222222222, 14.205], [79.02694444444444, 14.205], [79.02694444444444, 14.205555555555556], [79.02666666666667, 14.205555555555556], [79.02666666666667, 14.205833333333334], [79.02638888888889, 14.205833333333334], [79.02638888888889, 14.206111111111111], [79.02583333333334, 14.206111111111111], [79.02583333333334, 14.205833333333334], [79.02527777777777, 14.205833333333334], [79.02527777777777, 14.205555555555556], [79.02444444444444, 14.205555555555556], [79.02444444444444, 14.205833333333334], [79.02388888888889, 14.205833333333334], [79.02388888888889, 14.206111111111111], [79.02333333333333, 14.206111111111111], [79.02333333333333, 14.205277777777779], [79.02277777777778, 14.205277777777779], [79.02277777777778, 14.205], [79.02333333333333, 14.205], [79.02333333333333, 14.204722222222223], [79.02305555555556, 14.204722222222223], [79.02305555555556, 14.204166666666667], [79.0225, 14.204166666666667], [79.0225, 14.204444444444444], [79.02194444444444, 14.204444444444444], [79.02194444444444, 14.203888888888889], [79.02222222222223, 14.203888888888889]], [[79.02555555555556, 14.199722222222222], [79.02583333333334, 14.199722222222222], [79.02583333333334, 14.200000000000001], [79.02555555555556, 14.200000000000001], [79.02555555555556, 14.199722222222222]], [[78.99194444444444, 14.171111111111111], [78.99194444444444, 14.170833333333334], [78.99222222222222, 14.170833333333334], [78.99222222222222, 14.170555555555556], [78.99249999999999, 14.170555555555556], [78.99249999999999, 14.17138888888889], [78.99222222222222, 14.17138888888889], [78.99222222222222, 14.171111111111111], [78.99194444444444, 14.171111111111111]], [[79.00888888888889, 14.151944444444444], [79.00888888888889, 14.152222222222223], [79.00861111111111, 14.152222222222223], [79.00861111111111, 14.151944444444444], [79.00888888888889, 14.151944444444444]], [[79.00944444444444, 14.151666666666667], [79.00944444444444, 14.151944444444444], [79.00916666666667, 14.151944444444444], [79.00916666666667, 14.151666666666667], [79.00944444444444, 14.151666666666667]], [[79.01805555555555, 14.14611111111111], [79.01805555555555, 14.14638888888889], [79.01777777777778, 14.14638888888889], [79.01777777777778, 14.14611111111111], [79.01805555555555, 14.14611111111111]], [[79.01694444444445, 14.142222222222223], [79.01694444444445, 14.142777777777779], [79.01666666666667, 14.142777777777779], [79.01666666666667, 14.142222222222223], [79.01694444444445, 14.142222222222223]]], [[[79.01694444444445, 14.187777777777779], [79.01666666666667, 14.187777777777779], [79.01666666666667, 14.188333333333334], [79.01694444444445, 14.188333333333334], [79.01694444444445, 14.187777777777779]]], [[[79.02638888888889, 14.205277777777779], [79.0261111111111, 14.205277777777779], [79.0261111111111, 14.205], [79.02638888888889, 14.205], [79.02638888888889, 14.204722222222223], [79.0261111111111, 14.204722222222223], [79.0261111111111, 14.204444444444444], [79.02583333333334, 14.204444444444444], [79.02583333333334, 14.205], [79.02555555555556, 14.205], [79.02555555555556, 14.205555555555556], [79.02638888888889, 14.205555555555556], [79.02638888888889, 14.205277777777779]]]]}}]}